{"type":"FeatureCollection","features":[{"type":"Feature","properties":{"name":"Armenia","adm0_a3":"ARM"},"geometry":{"type":"MultiPolygon","coordinates":[[[[45.5523,40.6161],[45.5144,40.5996],[45.4788,40.607],[45.4788,40.6483],[45.5045,40.6648],[45.5342,40.664],[45.5623,40.6492],[45.5523,40.6161]]],[[[46.4906,38.9067],[46.3178,38.9126],[46.1701,38.869],[46.1145,38.8778],[46.0774,38.9549],[46.0459,39.0175],[45.9519,39.1781],[45.9774,39.2439],[45.925,39.2819],[45.7986,39.3502],[45.7663,39.3785],[45.7842,39.4172],[45.7965,39.4881],[45.7845,39.5456],[45.7505,39.5629],[45.6874,39.5641],[45.6107,39.5498],[45.4568,39.4945],[45.3499,39.5299],[45.2883,39.5656],[45.2525,39.5955],[45.1726,39.5706],[45.1528,39.5827],[45.1486,39.6566],[45.1246,39.6963],[45.0765,39.7428],[45.0316,39.7651],[44.8672,39.7191],[44.7683,39.7035],[44.7338,39.7465],[44.5604,39.8876],[44.3996,39.9958],[44.2893,40.0404],[44.178,40.0357],[44.0054,40.0141],[43.942,40.0231],[43.7917,40.0703],[43.6662,40.1264],[43.6833,40.1497],[43.7099,40.1665],[43.6781,40.2393],[43.6084,40.3566],[43.6158,40.3933],[43.5938,40.444],[43.5693,40.4824],[43.6679,40.5741],[43.7129,40.6478],[43.7227,40.7195],[43.6965,40.7941],[43.6316,40.929],[43.5917,40.9682],[43.5175,41.0048],[43.4553,41.0647],[43.4395,41.1071],[43.492,41.1155],[43.645,41.1167],[43.7932,41.1311],[43.9092,41.159],[44.0772,41.1825],[44.1465,41.2034],[44.2273,41.2133],[44.473,41.191],[44.5648,41.2082],[44.8414,41.2114],[44.8485,41.2202],[44.8109,41.2486],[44.8113,41.2594],[44.9759,41.2775],[45.0014,41.291],[45.0229,41.2457],[45.0848,41.1955],[45.1523,41.1751],[45.1886,41.1474],[45.1902,41.1264],[45.0707,41.1008],[45.0626,41.0881],[45.0705,41.0756],[45.1061,41.0693],[45.2734,41.0063],[45.3689,41.0049],[45.4191,40.9857],[45.4442,40.948],[45.524,40.8967],[45.5875,40.8469],[45.5914,40.8297],[45.5794,40.8045],[45.4014,40.7071],[45.3789,40.6736],[45.3762,40.6381],[45.4544,40.5324],[45.5695,40.4168],[45.7357,40.3291],[45.9646,40.2338],[45.9676,40.1748],[45.9312,40.1047],[45.9001,40.0571],[45.8859,40.0249],[45.8581,40.0113],[45.6302,40.0142],[45.596,40.0028],[45.581,39.989],[45.5798,39.9775],[45.6618,39.9562],[45.7896,39.8811],[45.8632,39.8083],[45.9399,39.7766],[46.0259,39.7186],[46.0948,39.6645],[46.2021,39.5945],[46.3217,39.6174],[46.4814,39.5552],[46.4881,39.5128],[46.4781,39.4751],[46.3776,39.4339],[46.3651,39.4168],[46.3652,39.4025],[46.3784,39.3823],[46.4373,39.3485],[46.5066,39.2985],[46.5848,39.2237],[46.55,39.2014],[46.4771,39.1982],[46.4203,39.2074],[46.4003,39.1922],[46.4015,39.1677],[46.4754,39.1109],[46.4898,39.0694],[46.4867,38.9975],[46.4906,38.9067]],[[44.969,41.0272],[45.0021,41.0158],[45.0236,41.0272],[45.0287,41.0539],[45.0211,41.078],[44.9943,41.0856],[44.9614,41.0792],[44.9589,41.0526],[44.969,41.0272]]]]}},{"type":"Feature","properties":{"name":"Azerbaijan","adm0_a3":"AZE"},"geometry":{"type":"MultiPolygon","coordinates":[[[[44.7683,39.7035],[44.8672,39.7191],[45.0316,39.7651],[45.0765,39.7428],[45.1246,39.6963],[45.1486,39.6566],[45.1528,39.5827],[45.1726,39.5706],[45.2525,39.5955],[45.2883,39.5656],[45.3499,39.5299],[45.4568,39.4945],[45.6107,39.5498],[45.6874,39.5641],[45.7505,39.5629],[45.7845,39.5456],[45.7965,39.4881],[45.7842,39.4172],[45.7663,39.3785],[45.7986,39.3502],[45.925,39.2819],[45.9774,39.2439],[45.9519,39.1781],[46.0459,39.0175],[46.0774,38.9549],[46.1145,38.8778],[45.9219,38.9079],[45.575,38.9728],[45.4797,39.0063],[45.3893,39.0959],[45.3355,39.1392],[45.256,39.1947],[45.1906,39.2156],[45.1412,39.2543],[45.1131,39.3116],[45.0717,39.3629],[45.0002,39.4235],[44.8382,39.6291],[44.8172,39.6504],[44.7834,39.6847],[44.7683,39.7035]]],[[[46.4906,38.9067],[46.4867,38.9975],[46.4898,39.0694],[46.4754,39.1109],[46.4015,39.1677],[46.4003,39.1922],[46.4203,39.2074],[46.4771,39.1982],[46.55,39.2014],[46.5848,39.2237],[46.5066,39.2985],[46.4373,39.3485],[46.3784,39.3823],[46.3652,39.4025],[46.3651,39.4168],[46.3776,39.4339],[46.4781,39.4751],[46.4881,39.5128],[46.4814,39.5552],[46.3217,39.6174],[46.2021,39.5945],[46.0948,39.6645],[46.0259,39.7186],[45.9399,39.7766],[45.8632,39.8083],[45.7896,39.8811],[45.6618,39.9562],[45.5798,39.9775],[45.581,39.989],[45.596,40.0028],[45.6302,40.0142],[45.8581,40.0113],[45.8859,40.0249],[45.9001,40.0571],[45.9312,40.1047],[45.9676,40.1748],[45.9646,40.2338],[45.7357,40.3291],[45.5695,40.4168],[45.4544,40.5324],[45.3762,40.6381],[45.3789,40.6736],[45.4014,40.7071],[45.5794,40.8045],[45.5914,40.8297],[45.5875,40.8469],[45.524,40.8967],[45.4442,40.948],[45.4191,40.9857],[45.3689,41.0049],[45.2734,41.0063],[45.1061,41.0693],[45.0705,41.0756],[45.0626,41.0881],[45.0707,41.1008],[45.1902,41.1264],[45.1886,41.1474],[45.1523,41.1751],[45.0848,41.1955],[45.0229,41.2457],[45.0014,41.291],[45.2172,41.4232],[45.281,41.4496],[45.4223,41.4253],[45.7156,41.3376],[45.6957,41.289],[45.7255,41.2616],[45.7928,41.2244],[45.922,41.1867],[46.0313,41.1673],[46.0865,41.1838],[46.1707,41.1979],[46.28,41.1544],[46.3808,41.0993],[46.431,41.0771],[46.4579,41.0702],[46.5344,41.0886],[46.6264,41.1597],[46.6624,41.2455],[46.6726,41.2868],[46.6189,41.3438],[46.5088,41.4056],[46.385,41.4599],[46.3055,41.5077],[46.2547,41.6021],[46.2035,41.6126],[46.1905,41.6249],[46.1821,41.6571],[46.1843,41.7021],[46.2019,41.7369],[46.2519,41.7518],[46.3025,41.7571],[46.3482,41.7902],[46.4055,41.8551],[46.4299,41.891],[46.5377,41.8704],[46.5521,41.8123],[46.5713,41.8001],[46.616,41.8069],[46.6903,41.8313],[46.7493,41.8126],[46.8256,41.7434],[46.9309,41.6704],[46.9878,41.6214],[47.0102,41.5875],[47.064,41.5547],[47.1426,41.5161],[47.2053,41.4556],[47.2611,41.3151],[47.3177,41.2824],[47.5206,41.2291],[47.5918,41.2181],[47.791,41.1993],[47.8611,41.2127],[47.9637,41.334],[48.0561,41.4587],[48.1423,41.4848],[48.2981,41.545],[48.3914,41.6019],[48.4307,41.6633],[48.5187,41.7793],[48.5729,41.8445],[48.6646,41.7866],[48.8239,41.6296],[49.0509,41.374],[49.1066,41.3017],[49.1433,41.2178],[49.1747,41.1161],[49.2265,41.0262],[49.4567,40.7999],[49.5562,40.7163],[49.7184,40.6081],[49.776,40.584],[49.8518,40.5772],[49.9906,40.5768],[50.1191,40.5345],[50.1825,40.5048],[50.248,40.4618],[50.3068,40.4122],[50.3659,40.2795],[50.1432,40.3232],[49.9188,40.3164],[49.792,40.2879],[49.669,40.249],[49.5512,40.1941],[49.4773,40.0873],[49.4151,39.8398],[49.3244,39.6083],[49.3275,39.5012],[49.3674,39.3984],[49.3628,39.3496],[49.3212,39.3289],[49.2693,39.2852],[49.1998,39.0727],[49.1653,39.0303],[49.121,39.0039],[49.1087,39.0291],[49.1113,39.0847],[49.0135,39.134],[48.9617,39.0788],[48.9262,38.9618],[48.8545,38.8388],[48.8509,38.8153],[48.8687,38.4355],[48.8403,38.4373],[48.6355,38.3987],[48.5927,38.4111],[48.4174,38.5862],[48.3813,38.6056],[48.3056,38.6135],[48.2613,38.6423],[48.2252,38.6892],[48.2047,38.7241],[48.0232,38.819],[47.9965,38.8538],[47.9927,38.8843],[48.0193,38.9118],[48.0501,38.935],[48.1386,38.9586],[48.242,38.979],[48.2751,38.9936],[48.2921,39.0188],[48.291,39.0593],[48.2741,39.0991],[48.1255,39.1716],[48.1092,39.2028],[48.1044,39.2411],[48.1129,39.2811],[48.136,39.3124],[48.2572,39.355],[48.3222,39.3991],[48.2817,39.4483],[48.1511,39.5605],[47.9959,39.6839],[47.8923,39.6851],[47.7729,39.6486],[47.5818,39.5434],[47.4762,39.4983],[47.3385,39.4239],[47.1884,39.341],[47.0654,39.2529],[46.9889,39.1802],[46.8525,39.1484],[46.7832,39.0874],[46.5548,38.9044],[46.4906,38.9067]],[[45.5523,40.6161],[45.5623,40.6492],[45.5342,40.664],[45.5045,40.6648],[45.4788,40.6483],[45.4788,40.607],[45.5144,40.5996],[45.5523,40.6161]]],[[[44.969,41.0272],[44.9589,41.0526],[44.9614,41.0792],[44.9943,41.0856],[45.0211,41.078],[45.0287,41.0539],[45.0236,41.0272],[45.0021,41.0158],[44.969,41.0272]]]]}},{"type":"Feature","properties":{"name":"Bulgaria","adm0_a3":"BGR"},"geometry":{"type":"Polygon","coordinates":[[[28.5854,43.7422],[28.5618,43.5013],[28.4654,43.3893],[28.3196,43.4269],[28.1337,43.3956],[28.0352,43.2683],[27.9793,43.2305],[27.9289,43.1861],[27.8965,43.0207],[27.8889,42.7497],[27.8184,42.7167],[27.7537,42.7065],[27.4848,42.4681],[27.6396,42.401],[27.7082,42.35],[27.8214,42.208],[27.9827,42.0474],[28.0145,41.969],[27.8792,41.9866],[27.8319,41.9813],[27.8017,41.9565],[27.7389,41.9615],[27.6611,41.9613],[27.5799,41.9329],[27.5349,41.9208],[27.4748,41.9469],[27.3629,42.025],[27.2949,42.0795],[27.2443,42.0933],[27.1934,42.0771],[27.0117,42.0586],[26.9688,42.0269],[26.8849,41.9918],[26.8004,41.9751],[26.6792,41.9633],[26.6153,41.9649],[26.5797,41.9479],[26.5497,41.8967],[26.5293,41.8467],[26.5114,41.8264],[26.3604,41.8016],[26.3272,41.7728],[26.318,41.7447],[26.3209,41.7166],[26.2006,41.7438],[26.1074,41.7257],[26.0855,41.7042],[26.066,41.6732],[26.077,41.6402],[26.1112,41.6082],[26.1436,41.5215],[26.1552,41.4349],[26.1354,41.3857],[26.0664,41.3507],[25.9233,41.3119],[25.785,41.3304],[25.7239,41.315],[25.6215,41.3101],[25.5271,41.2998],[25.3819,41.2644],[25.2512,41.2436],[25.1334,41.3158],[24.9936,41.365],[24.8469,41.3942],[24.7958,41.3729],[24.7737,41.3561],[24.6511,41.42],[24.596,41.4427],[24.5693,41.4674],[24.5183,41.5525],[24.4879,41.5552],[24.3867,41.5235],[24.2895,41.525],[24.2304,41.5308],[24.0561,41.5272],[24.0329,41.4691],[24.0113,41.4601],[23.9735,41.4523],[23.8809,41.456],[23.7623,41.413],[23.6352,41.3868],[23.5358,41.386],[23.4334,41.3987],[23.3721,41.3896],[23.2398,41.385],[23.156,41.3221],[23.0256,41.3256],[22.916,41.3363],[22.9297,41.3561],[22.9515,41.6056],[23.0057,41.7169],[23.0036,41.7398],[22.992,41.7572],[22.9439,41.7751],[22.9092,41.8352],[22.8368,41.9936],[22.7961,42.0257],[22.6823,42.0591],[22.5827,42.1048],[22.4982,42.1651],[22.344,42.314],[22.4221,42.3289],[22.4457,42.3591],[22.5235,42.441],[22.5324,42.4812],[22.5242,42.5039],[22.4721,42.5433],[22.4362,42.6291],[22.4633,42.7095],[22.4656,42.7508],[22.4393,42.7917],[22.4668,42.8425],[22.5228,42.8703],[22.5581,42.8785],[22.7062,42.8839],[22.7999,42.9857],[22.8568,43.0183],[22.9152,43.076],[22.9423,43.0971],[22.968,43.142],[22.9769,43.188],[22.8596,43.2523],[22.8197,43.3007],[22.7676,43.3542],[22.697,43.3911],[22.5546,43.4545],[22.4991,43.5188],[22.4741,43.6022],[22.4363,43.6655],[22.3948,43.7066],[22.3869,43.7401],[22.3696,43.7813],[22.3654,43.8621],[22.399,43.9695],[22.4208,44.0074],[22.469,44.018],[22.5975,44.0753],[22.6034,44.1486],[22.6266,44.1941],[22.6675,44.2202],[22.7051,44.2378],[22.7752,44.1952],[22.9454,44.1273],[23.0285,44.078],[23.0244,44.0472],[22.9854,44.017],[22.9113,43.9872],[22.8683,43.9479],[22.8564,43.899],[22.8677,43.8646],[22.919,43.8345],[23.2246,43.8739],[23.5346,43.8536],[23.9508,43.7867],[24.2268,43.7635],[24.4306,43.7944],[24.8082,43.7384],[25.1597,43.6863],[25.4971,43.6708],[25.6861,43.7118],[25.8188,43.7668],[25.9334,43.8706],[26.2158,44.0073],[26.4893,44.084],[26.8478,44.1462],[27.0869,44.1674],[27.1207,44.1461],[27.4254,44.0205],[27.561,44.0201],[27.6709,43.9978],[27.7107,43.9646],[27.7386,43.9563],[27.8843,43.9874],[27.9489,43.9186],[28.05,43.8224],[28.222,43.7729],[28.3752,43.7448],[28.4234,43.7405],[28.5854,43.7422]]]}},{"type":"Feature","properties":{"name":"N. Cyprus","adm0_a3":"CYN"},"geometry":{"type":"Polygon","coordinates":[[[34.0045,35.0652],[33.9657,35.0568],[33.9033,35.0854],[33.8664,35.0936],[33.832,35.0672],[33.7923,35.0482],[33.7569,35.0397],[33.7258,35.0373],[33.6754,35.0179],[33.6145,35.0228],[33.5257,35.0387],[33.4758,35.0003],[33.4639,35.0049],[33.456,35.1014],[33.4242,35.1409],[33.3838,35.1627],[33.3256,35.1536],[33.2483,35.1569],[33.191,35.1731],[33.0775,35.1462],[32.9859,35.1164],[32.9195,35.0878],[32.8694,35.0894],[32.7841,35.1158],[32.7202,35.1454],[32.7127,35.171],[32.7724,35.1596],[32.8799,35.1806],[32.9264,35.2781],[32.9416,35.3904],[33.1234,35.3582],[33.3078,35.3415],[33.4588,35.3359],[33.6076,35.3542],[34.0635,35.474],[34.1925,35.5457],[34.2724,35.57],[34.4111,35.6293],[34.5561,35.6621],[34.4632,35.5935],[33.942,35.292],[33.9079,35.2024],[33.9312,35.1404],[34.0045,35.0652]]]}},{"type":"Feature","properties":{"name":"Cyprus","adm0_a3":"CYP"},"geometry":{"type":"Polygon","coordinates":[[[32.7127,35.171],[32.7202,35.1454],[32.7841,35.1158],[32.8694,35.0894],[32.9195,35.0878],[32.9859,35.1164],[33.0775,35.1462],[33.191,35.1731],[33.2483,35.1569],[33.3256,35.1536],[33.3838,35.1627],[33.4242,35.1409],[33.456,35.1014],[33.4639,35.0049],[33.4758,35.0003],[33.5257,35.0387],[33.6145,35.0228],[33.6754,35.0179],[33.7258,35.0373],[33.7569,35.0397],[33.7923,35.0482],[33.832,35.0672],[33.8664,35.0936],[33.9033,35.0854],[33.9657,35.0568],[34.0045,35.0652],[34.0236,35.0456],[34.0502,34.9884],[33.9365,34.9715],[33.8225,34.9659],[33.759,34.9732],[33.6994,34.9699],[33.5145,34.8064],[33.4149,34.7509],[33.2966,34.7177],[33.1761,34.698],[33.1155,34.6956],[33.0623,34.6748],[33.0249,34.6369],[33.0239,34.6],[33.0079,34.5696],[32.9418,34.5759],[32.9143,34.6355],[32.8672,34.6611],[32.7501,34.6478],[32.693,34.6494],[32.5056,34.7062],[32.449,34.7294],[32.4138,34.778],[32.3172,34.9533],[32.301,35.083],[32.3909,35.0498],[32.475,35.09],[32.556,35.1558],[32.6523,35.1827],[32.7127,35.171]]]}},{"type":"Feature","properties":{"name":"Egypt","adm0_a3":"EGY"},"geometry":{"type":"Polygon","coordinates":[[[34.2453,31.2083],[34.3285,30.995],[34.401,30.8278],[34.4899,30.5963],[34.5178,30.5074],[34.5297,30.446],[34.6586,30.1915],[34.7351,29.982],[34.7911,29.8121],[34.8698,29.5639],[34.9043,29.4773],[34.8485,29.4321],[34.7364,29.2706],[34.6172,28.7579],[34.4465,28.3573],[34.4271,28.1065],[34.3997,28.016],[34.3186,27.889],[34.2201,27.7643],[34.0451,27.8289],[33.7603,28.0477],[33.5941,28.2556],[33.4161,28.3898],[33.2478,28.5677],[33.202,28.6957],[33.2037,28.7778],[33.1302,28.9783],[33.0758,29.073],[32.8706,29.2862],[32.8117,29.4],[32.7667,29.45],[32.7215,29.5218],[32.6472,29.7984],[32.5657,29.974],[32.473,29.9254],[32.4895,29.8515],[32.4086,29.7493],[32.3598,29.6307],[32.3973,29.5338],[32.565,29.3863],[32.599,29.3219],[32.6381,29.1822],[32.6318,28.9922],[32.6589,28.9277],[32.7845,28.7866],[32.8295,28.7029],[32.8565,28.6306],[32.8982,28.5652],[33.0229,28.4423],[33.2021,28.2083],[33.3723,28.0506],[33.4949,27.9745],[33.5471,27.8981],[33.5588,27.7012],[33.5498,27.6074],[33.6574,27.4306],[33.6973,27.3411],[33.8017,27.2682],[33.8493,27.1849],[33.8931,27.0495],[33.9591,26.649],[34.0495,26.5507],[34.3293,26.0244],[34.5651,26],[34.6793,26],[34.8532,26],[35.1941,26],[35.3971,26],[35.4778,26],[35.6247,26],[35.7839,26],[35.632,26],[35.5938,26],[35.5408,26],[35.5152,26],[35.5044,26],[35.5228,26],[35.5644,26],[35.6979,26],[35.7974,26],[35.8458,26],[35.9134,26],[36.2297,26],[36.4146,26],[36.8297,26],[36.8704,26],[36.8714,26],[36.5433,26],[36.2152,26],[35.887,26],[35.559,26],[35.2309,26],[34.9027,26],[34.5746,26],[34.2465,26],[33.9185,26],[33.5903,26],[33.2622,26],[32.9341,26],[32.6061,26],[32.2778,26],[31.9498,26],[31.6217,26],[31.4345,26],[31.4664,26],[31.4861,26],[31.4643,26],[31.4003,26],[31.3585,26],[31.2606,26],[31.2092,26],[31.0927,26],[30.7106,26],[30.3286,26],[29.9467,26],[29.5646,26],[29.1825,26],[28.8006,26],[28.4186,26],[28.0364,26],[27.6545,26],[27.2725,26],[26.8904,26],[26.5084,26],[26.1264,26],[25.7443,26],[25.3623,26],[24.9803,26],[24.9803,26.038],[24.9803,26.2625],[24.9803,26.4871],[24.9803,26.7117],[24.9803,26.9362],[24.9803,27.1608],[24.9803,27.3854],[24.9803,27.61],[24.9803,27.8345],[24.9803,28.0591],[24.9803,28.2836],[24.9803,28.5082],[24.9803,28.7328],[24.9803,28.9573],[24.9803,29.1819],[24.9717,29.2238],[24.9161,29.3763],[24.8659,29.5703],[24.8108,29.8087],[24.8037,29.886],[24.7116,30.1315],[24.7032,30.2011],[24.7265,30.2506],[24.8775,30.4575],[24.923,30.558],[24.9614,30.6785],[24.9739,30.7766],[24.9295,30.9265],[24.8775,31.0612],[24.86,31.1992],[24.8527,31.3348],[24.93,31.4275],[25.0227,31.514],[25.0572,31.5672],[25.112,31.6269],[25.1505,31.655],[25.2255,31.5338],[25.3822,31.5128],[25.8933,31.6209],[26.4573,31.5121],[26.7687,31.4704],[27.248,31.3779],[27.54,31.2127],[27.6201,31.1917],[27.83,31.195],[27.9676,31.0974],[28.5148,31.0504],[28.8069,30.9427],[28.9728,30.8567],[29.0721,30.8303],[29.16,30.8346],[29.2789,30.8669],[29.4285,30.9274],[29.5916,31.0115],[29.9298,31.2275],[30.0494,31.2654],[30.1275,31.2557],[30.2227,31.2584],[30.2623,31.3168],[30.3123,31.357],[30.3438,31.4027],[30.3951,31.4576],[30.571,31.473],[30.9235,31.5668],[30.8842,31.5224],[30.563,31.417],[30.7005,31.4039],[30.8414,31.4399],[31.0018,31.4628],[31.0309,31.5076],[31.052,31.5916],[31.0829,31.6033],[31.1939,31.5876],[31.5244,31.4583],[31.6065,31.4558],[31.8393,31.5263],[31.889,31.5414],[31.9643,31.5021],[32.136,31.3411],[32.0761,31.3445],[31.8922,31.4825],[31.8759,31.4137],[31.7711,31.2926],[31.9021,31.2402],[32.0085,31.2205],[32.0656,31.153],[32.1018,31.0928],[32.2065,31.119],[32.2818,31.2009],[32.2428,31.2465],[32.2162,31.2937],[32.2506,31.2949],[32.3235,31.2561],[32.5328,31.1007],[32.6033,31.0688],[32.6846,31.074],[32.8545,31.1177],[32.9016,31.1109],[33.1299,31.1682],[33.1567,31.1262],[33.1943,31.0845],[33.3779,31.131],[33.6665,31.1304],[33.9025,31.181],[34.1763,31.3039],[34.1981,31.3226],[34.2125,31.2923],[34.2453,31.2083]]]}},{"type":"Feature","properties":{"name":"Georgia","adm0_a3":"GEO"},"geometry":{"type":"Polygon","coordinates":[[[45.0014,41.291],[44.9759,41.2775],[44.8113,41.2594],[44.8109,41.2486],[44.8485,41.2202],[44.8414,41.2114],[44.5648,41.2082],[44.473,41.191],[44.2273,41.2133],[44.1465,41.2034],[44.0772,41.1825],[43.9092,41.159],[43.7932,41.1311],[43.645,41.1167],[43.492,41.1155],[43.4395,41.1071],[43.4416,41.126],[43.4334,41.1555],[43.4023,41.1766],[43.359,41.1901],[43.2793,41.1852],[43.2055,41.1992],[43.1528,41.2364],[43.141,41.2648],[43.1713,41.2879],[43.149,41.3071],[43.0571,41.3528],[42.9067,41.4668],[42.8217,41.4924],[42.7879,41.5637],[42.7541,41.5789],[42.6824,41.5857],[42.6068,41.5788],[42.5904,41.5707],[42.5674,41.5593],[42.5079,41.4701],[42.4664,41.4398],[42.3644,41.454],[42.28,41.475],[42.2111,41.4867],[42.0777,41.4941],[41.9258,41.4957],[41.8235,41.4324],[41.7794,41.4405],[41.7018,41.4716],[41.5766,41.4973],[41.5101,41.5175],[41.7018,41.7054],[41.7588,41.8171],[41.7607,41.8849],[41.763,41.97],[41.6633,42.1469],[41.5777,42.3979],[41.4888,42.6593],[41.4194,42.7376],[41.1287,42.8281],[41.0616,42.9309],[40.8366,43.0635],[40.524,43.121],[40.4621,43.1457],[40.1906,43.3124],[39.9783,43.4198],[40.0237,43.4849],[40.0846,43.5531],[40.1502,43.5698],[40.3423,43.5427],[40.5189,43.512],[40.648,43.5339],[40.8017,43.4799],[40.942,43.4181],[41.0831,43.3745],[41.3582,43.3334],[41.4607,43.2763],[41.5806,43.2192],[42.05,43.1901],[42.0878,43.1991],[42.1223,43.2073],[42.2797,43.2281],[42.419,43.2242],[42.566,43.1551],[42.6603,43.1591],[42.7606,43.1696],[42.89,43.1326],[42.9916,43.0915],[43.0002,43.0497],[43.0892,42.9891],[43.3479,42.8967],[43.5578,42.8445],[43.623,42.8077],[43.7826,42.747],[43.7987,42.7278],[43.7954,42.703],[43.7499,42.6575],[43.7384,42.617],[43.7599,42.5938],[43.826,42.5715],[43.9574,42.5666],[44.0047,42.5956],[44.1027,42.6164],[44.1997,42.6536],[44.3295,42.7035],[44.5059,42.7486],[44.5765,42.7485],[44.6443,42.7347],[44.6918,42.7096],[44.7711,42.6168],[44.8505,42.7468],[44.871,42.7564],[44.9434,42.7303],[45.0716,42.6941],[45.1603,42.675],[45.2082,42.6482],[45.3438,42.5298],[45.5629,42.5357],[45.6556,42.5177],[45.7053,42.4981],[45.7275,42.475],[45.6884,42.3574],[45.6343,42.2347],[45.6386,42.2051],[45.7266,42.1589],[45.846,42.11],[45.9104,42.0707],[45.954,42.0354],[46.0484,42.0087],[46.1598,41.992],[46.2127,41.9899],[46.2678,41.9604],[46.4115,41.9046],[46.4299,41.891],[46.4055,41.8551],[46.3482,41.7902],[46.3025,41.7571],[46.2519,41.7518],[46.2019,41.7369],[46.1843,41.7021],[46.1821,41.6571],[46.1905,41.6249],[46.2035,41.6126],[46.2547,41.6021],[46.3055,41.5077],[46.385,41.4599],[46.5088,41.4056],[46.6189,41.3438],[46.6726,41.2868],[46.6624,41.2455],[46.6264,41.1597],[46.5344,41.0886],[46.4579,41.0702],[46.431,41.0771],[46.3808,41.0993],[46.28,41.1544],[46.1707,41.1979],[46.0865,41.1838],[46.0313,41.1673],[45.922,41.1867],[45.7928,41.2244],[45.7255,41.2616],[45.6957,41.289],[45.7156,41.3376],[45.4223,41.4253],[45.281,41.4496],[45.2172,41.4232],[45.0014,41.291]]]}},{"type":"Feature","properties":{"name":"Greece","adm0_a3":"GRC"},"geometry":{"type":"MultiPolygon","coordinates":[[[[20.0013,39.7094],[20.0226,39.7107],[20.0598,39.6991],[20.1311,39.6616],[20.2068,39.6535],[20.2482,39.6784],[20.2721,39.7012],[20.2876,39.7386],[20.2938,39.7822],[20.3062,39.7967],[20.3641,39.7917],[20.3824,39.8026],[20.3816,39.8418],[20.3442,39.8906],[20.3113,39.9508],[20.3111,39.9794],[20.3385,39.9911],[20.3837,40.0172],[20.408,40.0495],[20.4561,40.0656],[20.5271,40.0685],[20.6062,40.0827],[20.6574,40.1174],[20.6649,40.1518],[20.697,40.2464],[20.7179,40.2927],[20.7517,40.3349],[20.77,40.3919],[20.8061,40.4455],[20.8816,40.4679],[20.9502,40.4944],[21.002,40.5634],[21.0309,40.6225],[21.0311,40.6586],[20.9879,40.7178],[20.9558,40.7753],[20.9643,40.8499],[21.1,40.8562],[21.1476,40.8631],[21.3237,40.8671],[21.4041,40.9072],[21.4597,40.9036],[21.5758,40.8689],[21.6275,40.8963],[21.7795,40.9504],[21.9295,41.1074],[21.9934,41.131],[22.1389,41.1405],[22.1845,41.1586],[22.2377,41.1552],[22.4008,41.1234],[22.4936,41.1185],[22.6036,41.1402],[22.7248,41.1785],[22.7551,41.3127],[22.7839,41.332],[22.8593,41.3374],[22.916,41.3363],[23.0256,41.3256],[23.156,41.3221],[23.2398,41.385],[23.3721,41.3896],[23.4334,41.3987],[23.5358,41.386],[23.6352,41.3868],[23.7623,41.413],[23.8809,41.456],[23.9735,41.4523],[24.0113,41.4601],[24.0329,41.4691],[24.0561,41.5272],[24.2304,41.5308],[24.2895,41.525],[24.3867,41.5235],[24.4879,41.5552],[24.5183,41.5525],[24.5693,41.4674],[24.596,41.4427],[24.6511,41.42],[24.7737,41.3561],[24.7958,41.3729],[24.8469,41.3942],[24.9936,41.365],[25.1334,41.3158],[25.2512,41.2436],[25.3819,41.2644],[25.5271,41.2998],[25.6215,41.3101],[25.7239,41.315],[25.785,41.3304],[25.9233,41.3119],[26.0664,41.3507],[26.1354,41.3857],[26.1552,41.4349],[26.1436,41.5215],[26.1112,41.6082],[26.077,41.6402],[26.066,41.6732],[26.0855,41.7042],[26.1074,41.7257],[26.2006,41.7438],[26.3209,41.7166],[26.4105,41.6963],[26.4625,41.6634],[26.495,41.6333],[26.5445,41.6072],[26.5813,41.6013],[26.6098,41.5122],[26.6249,41.4018],[26.6023,41.3542],[26.5364,41.3431],[26.3307,41.2388],[26.3257,41.1433],[26.3284,41.097],[26.3326,41.0643],[26.3541,41.0368],[26.3541,40.9971],[26.3311,40.9545],[26.2412,40.8832],[26.1789,40.8265],[26.1092,40.7497],[26.0697,40.7403],[26.039,40.7268],[26.0107,40.7691],[25.8557,40.8441],[25.4968,40.8878],[25.3253,40.9431],[25.2501,40.9328],[25.1045,40.9947],[25.0047,40.9675],[24.793,40.8575],[24.6787,40.8695],[24.5565,40.9356],[24.4771,40.9478],[24.3838,40.9127],[24.2344,40.7861],[24.0823,40.7241],[23.9461,40.7483],[23.7628,40.7478],[23.7433,40.677],[23.7787,40.628],[23.8789,40.5444],[23.8319,40.4815],[23.8668,40.4186],[23.932,40.4058],[24.0306,40.4093],[24.2128,40.3278],[24.2925,40.2418],[24.3434,40.1477],[24.2324,40.2152],[24.1588,40.28],[24.0561,40.3036],[23.9132,40.3588],[23.8234,40.368],[23.7279,40.3297],[23.7205,40.2863],[23.8234,40.2051],[23.9176,40.1552],[23.9675,40.1146],[24.0008,40.0246],[23.9818,39.994],[23.9471,39.9656],[23.8354,40.0223],[23.6646,40.2238],[23.4263,40.264],[23.3864,40.222],[23.4332,40.1154],[23.4671,40.0739],[23.6741,39.9589],[23.6575,39.9345],[23.6273,39.9241],[23.3956,39.9898],[23.3282,40.0899],[23.312,40.2165],[23.0981,40.3043],[22.8965,40.3999],[22.8514,40.4906],[22.8929,40.5243],[22.9223,40.5909],[22.8114,40.5786],[22.7419,40.5365],[22.6295,40.4956],[22.6249,40.4286],[22.6427,40.3666],[22.6055,40.2764],[22.5693,40.1193],[22.5922,40.0369],[22.8357,39.8006],[22.919,39.6289],[22.9788,39.5638],[23.1034,39.492],[23.2334,39.3584],[23.2885,39.2888],[23.3277,39.1749],[23.2184,39.1044],[23.1547,39.1015],[23.1194,39.1328],[23.1687,39.2104],[23.1617,39.2578],[22.9929,39.3311],[22.9214,39.3063],[22.839,39.2586],[22.886,39.17],[22.939,39.1115],[22.9655,39.0309],[23.0667,39.0379],[22.9305,38.9477],[22.8026,38.9016],[22.6769,38.8989],[22.5968,38.8906],[22.5691,38.8675],[22.6343,38.8507],[22.6875,38.8492],[22.774,38.8004],[23.0203,38.7419],[23.1377,38.668],[23.2529,38.6612],[23.3689,38.5255],[23.5696,38.4894],[23.684,38.3524],[23.836,38.3255],[23.967,38.275],[24.0054,38.2268],[24.0245,38.1398],[24.033,37.9553],[24.0613,37.8179],[24.0623,37.7745],[24.0554,37.7096],[24.0197,37.6777],[23.9716,37.6768],[23.8773,37.7778],[23.7328,37.8841],[23.5805,38.0105],[23.5372,38.0328],[23.5018,38.0349],[23.4202,37.9921],[23.1937,37.959],[23.0874,37.9128],[23.0475,37.9026],[23.0363,37.8784],[23.0861,37.8531],[23.1472,37.7953],[23.1472,37.7163],[23.1976,37.6202],[23.2627,37.5954],[23.3476,37.5976],[23.3962,37.5798],[23.4088,37.5416],[23.4581,37.4969],[23.4906,37.4639],[23.4893,37.4402],[23.2525,37.3773],[23.203,37.3485],[23.1615,37.3338],[23.1,37.3638],[23.0965,37.4406],[23.0151,37.4818],[22.9405,37.5171],[22.8511,37.5322],[22.775,37.5851],[22.7254,37.5421],[22.765,37.3933],[22.8511,37.2908],[22.995,37.0159],[23.0604,36.8535],[23.0735,36.775],[23.041,36.6445],[23.1117,36.5476],[23.1602,36.4481],[23.1068,36.4519],[23.0605,36.487],[22.9829,36.5284],[22.8323,36.6871],[22.7799,36.7862],[22.7172,36.7939],[22.6084,36.7797],[22.4891,36.5682],[22.4895,36.4469],[22.4277,36.4758],[22.3748,36.5136],[22.3813,36.6462],[22.376,36.7019],[22.2312,36.8826],[22.1647,36.9028],[22.1338,36.9639],[22.0805,37.029],[22.0117,37.0165],[21.9556,36.9901],[21.94,36.8918],[21.9343,36.8037],[21.8924,36.7373],[21.7381,36.8632],[21.5829,37.081],[21.5788,37.2004],[21.6925,37.3093],[21.6789,37.3872],[21.5713,37.541],[21.4162,37.6399],[21.3293,37.6693],[21.2885,37.7745],[21.2053,37.8289],[21.138,37.8542],[21.1247,37.8916],[21.145,37.9193],[21.3081,38.0274],[21.4037,38.1967],[21.4512,38.2047],[21.5487,38.1646],[21.6584,38.1751],[21.7484,38.2742],[21.8247,38.3281],[21.9533,38.3212],[22.2437,38.1887],[22.5559,38.1132],[22.7115,38.0469],[22.7996,37.9812],[22.8464,37.9676],[22.9203,37.9583],[22.917,38.0075],[22.8932,38.0509],[22.9548,38.0746],[23.1221,38.0733],[23.1525,38.0964],[23.1835,38.1337],[23.1489,38.1761],[23.0936,38.1964],[23.0344,38.2021],[22.9954,38.2155],[22.9325,38.202],[22.8344,38.2347],[22.7837,38.2617],[22.7539,38.2895],[22.5834,38.3449],[22.4217,38.4385],[22.3853,38.3855],[22.3199,38.3568],[22.2269,38.3528],[21.9653,38.4125],[21.8047,38.3669],[21.7171,38.355],[21.6501,38.354],[21.5677,38.3336],[21.4726,38.3214],[21.3901,38.4078],[21.3555,38.4748],[21.3311,38.4873],[21.3298,38.4244],[21.3033,38.3739],[21.1826,38.3456],[21.1132,38.3847],[21.0598,38.5033],[20.9922,38.654],[20.8732,38.7757],[20.7769,38.8075],[20.7686,38.8744],[20.7773,38.9279],[20.8932,38.9411],[21.0742,38.8852],[21.1116,38.8963],[21.1523,38.9221],[21.1445,38.9792],[21.1184,39.03],[21.0686,39.0323],[21.0341,39.0263],[20.9228,39.0368],[20.7797,39.0085],[20.7134,39.0352],[20.6913,39.0675],[20.5717,39.1477],[20.4683,39.2553],[20.3008,39.3271],[20.1914,39.5458],[20.0994,39.6413],[20.0013,39.7094]]],[[[23.8522,35.5354],[23.9206,35.5282],[24.0133,35.5294],[24.0344,35.5354],[24.0934,35.5938],[24.166,35.5952],[24.1978,35.5375],[24.124,35.5108],[24.109,35.4958],[24.1231,35.4836],[24.1785,35.4595],[24.2554,35.4686],[24.2577,35.4231],[24.2749,35.386],[24.3129,35.3638],[24.354,35.3595],[24.4449,35.366],[24.5346,35.3808],[24.627,35.4099],[24.7213,35.4248],[25.0031,35.4099],[25.1043,35.3469],[25.2968,35.3394],[25.4757,35.3062],[25.5696,35.3281],[25.7302,35.3486],[25.7559,35.3264],[25.7352,35.184],[25.745,35.1427],[25.7913,35.1229],[25.8371,35.1326],[25.8934,35.1792],[26.028,35.2153],[26.1679,35.2151],[26.2855,35.3098],[26.3202,35.3151],[26.2986,35.2686],[26.2809,35.1592],[26.2556,35.0952],[26.2443,35.0447],[26.1656,35.0186],[26.0467,35.0142],[25.8297,35.0252],[25.6109,35.0073],[25.2058,34.9593],[24.7998,34.9345],[24.7452,34.9506],[24.7439,35.0144],[24.7352,35.0583],[24.7089,35.0891],[24.5834,35.1153],[24.4637,35.1604],[23.9943,35.2219],[23.8836,35.2461],[23.7039,35.2335],[23.6381,35.2352],[23.5928,35.2572],[23.5616,35.2952],[23.5476,35.4156],[23.5698,35.5348],[23.6087,35.5663],[23.6266,35.5304],[23.6727,35.5139],[23.7154,35.5501],[23.715,35.6047],[23.7369,35.6555],[23.7708,35.6342],[23.7934,35.5562],[23.8522,35.5354]]],[[[27.1761,35.4653],[27.1379,35.4091],[27.0991,35.4564],[27.1158,35.5111],[27.0707,35.5978],[27.1561,35.7263],[27.158,35.7887],[27.2231,35.8205],[27.207,35.7145],[27.1572,35.6295],[27.2089,35.5589],[27.2336,35.4786],[27.1761,35.4653]]],[[[23.0538,36.1898],[23.0422,36.1464],[22.9395,36.1762],[22.9108,36.221],[22.9057,36.3203],[22.9326,36.3687],[22.9505,36.3839],[22.9979,36.3281],[23.0971,36.2466],[23.0538,36.1898]]],[[[27.8428,35.9293],[27.7706,35.9083],[27.7457,35.911],[27.7155,35.9573],[27.7573,36.0692],[27.7187,36.1411],[27.7163,36.1716],[27.7744,36.2138],[27.8152,36.277],[27.9145,36.3453],[28.1715,36.4262],[28.2318,36.4336],[28.2301,36.3703],[28.144,36.2099],[28.0677,36.1297],[28.0878,36.0653],[27.9655,36.0475],[27.8428,35.9293]]],[[[25.4824,36.3926],[25.4359,36.3401],[25.3705,36.3589],[25.3972,36.379],[25.4129,36.4049],[25.4146,36.4423],[25.3969,36.4653],[25.409,36.4737],[25.4674,36.4351],[25.4824,36.3926]]],[[[26.4606,36.5854],[26.3816,36.5615],[26.3314,36.5114],[26.27,36.5469],[26.2698,36.5954],[26.337,36.5806],[26.3842,36.6079],[26.37,36.6386],[26.4213,36.6242],[26.4606,36.5854]]],[[[27.8602,36.5539],[27.8383,36.538],[27.7881,36.5837],[27.7857,36.6075],[27.8368,36.6349],[27.8625,36.6412],[27.8698,36.6225],[27.869,36.5827],[27.8602,36.5539]]],[[[24.5357,36.7638],[24.5375,36.705],[24.5307,36.684],[24.326,36.6556],[24.3449,36.723],[24.3574,36.7443],[24.4252,36.7129],[24.4502,36.729],[24.4604,36.7475],[24.5357,36.7638]]],[[[25.3817,36.674],[25.3644,36.6583],[25.2887,36.7215],[25.26,36.7584],[25.2959,36.7892],[25.4069,36.7173],[25.3817,36.674]]],[[[26.9496,36.7271],[26.9184,36.7259],[26.9556,36.7742],[27.0611,36.8404],[27.2149,36.8986],[27.2656,36.9051],[27.3521,36.8689],[27.1932,36.8091],[27.151,36.7776],[27.0336,36.7708],[26.9496,36.7271]]],[[[25.8594,36.7904],[25.7711,36.7822],[25.7432,36.7897],[25.7968,36.807],[25.8344,36.8254],[25.8524,36.8476],[25.942,36.8866],[26.0007,36.9374],[26.0645,36.9027],[25.9847,36.8797],[25.8594,36.7904]]],[[[24.7209,36.9214],[24.7026,36.9171],[24.6765,36.9593],[24.671,36.9986],[24.6814,37.0216],[24.7161,37.0238],[24.7632,36.9492],[24.7209,36.9214]]],[[[27.0197,36.959],[26.9199,36.9452],[26.9377,37.0246],[26.8887,37.0873],[26.9666,37.0521],[27.016,37.0097],[27.0401,37.0016],[27.0346,36.976],[27.0197,36.959]]],[[[25.2789,37.0684],[25.1994,36.9913],[25.1333,36.9997],[25.1055,37.035],[25.1465,37.1074],[25.2351,37.1485],[25.2753,37.1378],[25.2715,37.0842],[25.2789,37.0684]]],[[[25.5459,36.9676],[25.4567,36.9297],[25.3959,36.9844],[25.3619,37.0704],[25.5253,37.1964],[25.5644,37.1851],[25.5879,37.1525],[25.5843,37.0393],[25.5459,36.9676]]],[[[24.5235,37.1251],[24.4865,37.1101],[24.4248,37.132],[24.4412,37.1869],[24.4838,37.2102],[24.5291,37.1923],[24.5359,37.1677],[24.5235,37.1251]]],[[[24.4357,37.3444],[24.3789,37.3141],[24.3978,37.3834],[24.3697,37.4196],[24.3948,37.4504],[24.4312,37.4752],[24.4485,37.4496],[24.4814,37.408],[24.4357,37.3444]]],[[[24.9429,37.4935],[24.9379,37.3897],[24.9115,37.3906],[24.8962,37.4066],[24.8953,37.4463],[24.9065,37.5089],[24.9429,37.4935]]],[[[25.4027,37.4191],[25.3071,37.413],[25.3127,37.4893],[25.3481,37.5092],[25.463,37.4711],[25.4574,37.4471],[25.4027,37.4191]]],[[[26.0293,37.5294],[25.9824,37.5256],[25.9968,37.5656],[26.0863,37.6349],[26.2115,37.6383],[26.3256,37.673],[26.3514,37.6743],[26.2969,37.6196],[26.2049,37.5685],[26.0293,37.5294]]],[[[25.2559,37.5996],[25.2188,37.5351],[25.1563,37.5451],[25.052,37.6145],[25.0163,37.6459],[24.9965,37.6769],[25.0394,37.6807],[25.0918,37.648],[25.2254,37.6307],[25.2559,37.5996]]],[[[24.356,37.5769],[24.289,37.5283],[24.2774,37.6011],[24.3204,37.6777],[24.3791,37.6827],[24.4008,37.649],[24.356,37.5769]]],[[[26.8244,37.8114],[26.9474,37.7785],[26.9815,37.782],[27.0396,37.77],[27.0551,37.7093],[26.9781,37.7005],[26.8449,37.6447],[26.7883,37.657],[26.7205,37.7055],[26.6129,37.7105],[26.5811,37.7237],[26.6387,37.7809],[26.7434,37.8098],[26.8244,37.8114]]],[[[20.8885,37.8054],[20.9939,37.708],[20.9091,37.7321],[20.8186,37.6647],[20.7038,37.7435],[20.6351,37.8231],[20.6195,37.855],[20.6915,37.9295],[20.7587,37.853],[20.8398,37.8407],[20.8885,37.8054]]],[[[24.9917,37.7596],[24.9622,37.6924],[24.8841,37.7705],[24.7985,37.824],[24.7665,37.8707],[24.7144,37.8989],[24.7002,37.9617],[24.7634,37.9875],[24.7904,37.9901],[24.8551,37.9137],[24.9563,37.9048],[24.9484,37.8577],[24.9805,37.7969],[24.9917,37.7596]]],[[[23.551,37.9259],[23.5114,37.9012],[23.4668,37.9024],[23.4353,37.9115],[23.4193,37.9312],[23.4391,37.9407],[23.4622,37.9804],[23.4837,37.9911],[23.5155,37.986],[23.5349,37.9702],[23.551,37.9259]]],[[[20.6123,38.3833],[20.6247,38.2679],[20.6952,38.2462],[20.7889,38.1421],[20.7808,38.0888],[20.7613,38.0706],[20.6062,38.1197],[20.5689,38.0977],[20.5235,38.1066],[20.4955,38.1642],[20.4987,38.1844],[20.4733,38.2188],[20.4521,38.2342],[20.391,38.1884],[20.3525,38.1799],[20.3522,38.2217],[20.4087,38.3368],[20.4351,38.3562],[20.4814,38.3182],[20.5196,38.3323],[20.5483,38.3945],[20.5503,38.4565],[20.5632,38.475],[20.6123,38.3833]]],[[[20.7587,38.3294],[20.7093,38.3186],[20.6464,38.4143],[20.6236,38.4803],[20.6497,38.484],[20.6748,38.4763],[20.7013,38.4514],[20.7011,38.4259],[20.7116,38.3986],[20.7392,38.3658],[20.7587,38.3294]]],[[[26.094,38.2181],[25.9985,38.1615],[25.8919,38.2433],[25.8743,38.2696],[25.9526,38.3026],[25.9914,38.3535],[25.96,38.416],[25.8513,38.5084],[25.8461,38.574],[26.0125,38.6017],[26.1104,38.5446],[26.1604,38.5407],[26.1412,38.4862],[26.1496,38.4685],[26.157,38.3029],[26.1107,38.2796],[26.1031,38.2342],[26.094,38.2181]]],[[[20.6867,38.6087],[20.6479,38.601],[20.6144,38.6063],[20.584,38.6017],[20.5547,38.5826],[20.5579,38.6619],[20.5925,38.7602],[20.6347,38.8176],[20.6941,38.8442],[20.7196,38.7992],[20.7148,38.6383],[20.6867,38.6087]]],[[[24.6747,38.8092],[24.569,38.7848],[24.541,38.7887],[24.5646,38.8194],[24.5664,38.8324],[24.461,38.8886],[24.4734,38.9617],[24.4856,38.9803],[24.5641,38.9422],[24.5813,38.8789],[24.6747,38.8092]]],[[[23.4154,38.9586],[23.472,38.8501],[23.525,38.8135],[23.6362,38.7702],[23.6885,38.7647],[23.8782,38.6866],[24.099,38.671],[24.1275,38.6485],[24.1547,38.5883],[24.1997,38.541],[24.211,38.5042],[24.1875,38.4634],[24.2201,38.3386],[24.2758,38.22],[24.3597,38.1625],[24.464,38.1451],[24.5633,38.1475],[24.5884,38.124],[24.5785,38.0202],[24.5365,37.9797],[24.5023,37.9699],[24.4727,37.9805],[24.4458,38.005],[24.4165,38.0166],[24.3595,38.0186],[24.3178,38.0604],[24.212,38.1175],[24.1926,38.1517],[24.1891,38.2043],[24.1441,38.2431],[24.1028,38.3168],[24.0636,38.3372],[24.0419,38.3741],[24.0401,38.39],[23.8862,38.4007],[23.7588,38.4012],[23.6508,38.4431],[23.6174,38.5525],[23.5533,38.582],[23.5053,38.6129],[23.4652,38.6559],[23.3641,38.735],[23.2521,38.8012],[23.1439,38.8448],[23.0291,38.8734],[22.9357,38.8396],[22.8813,38.8477],[22.8703,38.8705],[22.9863,38.9159],[23.1458,39.0027],[23.2582,39.0313],[23.3127,39.0349],[23.4154,38.9586]]],[[[23.7798,39.1144],[23.7352,39.0806],[23.6661,39.0954],[23.5939,39.2086],[23.7798,39.1144]]],[[[23.888,39.1583],[23.8412,39.1466],[23.8881,39.2264],[23.9709,39.2677],[23.9397,39.2005],[23.888,39.1583]]],[[[26.4102,39.3294],[26.3928,39.2701],[26.5311,39.1718],[26.5782,39.1095],[26.5956,39.0488],[26.584,39.0314],[26.5315,39.0644],[26.4887,39.0748],[26.5031,39.0314],[26.5472,38.9941],[26.4688,38.9728],[26.3901,38.9739],[26.1608,39.0259],[26.1079,39.0811],[26.2451,39.1641],[26.2731,39.1976],[26.176,39.1943],[26.0724,39.0956],[25.9063,39.139],[25.8555,39.1787],[25.8441,39.2],[25.9096,39.2875],[26.0265,39.2846],[26.0884,39.3043],[26.1648,39.332],[26.1654,39.3735],[26.3478,39.383],[26.4102,39.3294]]],[[[20.0779,39.4327],[20.0996,39.3766],[19.975,39.4114],[19.884,39.4615],[19.8089,39.5853],[19.6489,39.7262],[19.6465,39.7671],[19.7073,39.7981],[19.8386,39.8201],[19.8917,39.7973],[19.9261,39.7737],[19.9368,39.7467],[19.8622,39.6926],[19.8467,39.6681],[19.9041,39.6195],[19.9031,39.6],[19.9273,39.5059],[19.9553,39.4704],[20.0277,39.4421],[20.0779,39.4327]]],[[[25.4377,39.9833],[25.3999,39.9496],[25.3721,39.8913],[25.357,39.8081],[25.2987,39.8061],[25.2634,39.8229],[25.2518,39.8544],[25.2494,39.8941],[25.2238,39.8926],[25.2032,39.8494],[25.1852,39.8299],[25.1265,39.8258],[25.0622,39.8524],[25.0652,39.9099],[25.0523,39.9764],[25.058,39.9997],[25.2342,40.0054],[25.2857,39.9563],[25.348,39.9848],[25.3736,40.0155],[25.4491,40.0348],[25.4377,39.9833]]],[[[25.6857,40.4266],[25.5727,40.4004],[25.448,40.4828],[25.5686,40.5159],[25.6243,40.492],[25.6643,40.4639],[25.6857,40.4266]]],[[[24.7742,40.6152],[24.6459,40.5794],[24.5155,40.647],[24.5167,40.6872],[24.5855,40.7687],[24.6233,40.7929],[24.7191,40.7863],[24.7736,40.7303],[24.7863,40.7039],[24.7687,40.6589],[24.7742,40.6152]]]]}},{"type":"Feature","properties":{"name":"Iran","adm0_a3":"IRN"},"geometry":{"type":"MultiPolygon","coordinates":[[[[54,35.6196],[54,35.5534],[54,35.5138],[54,35.4741],[54,35.4245],[54,35.3616],[54,35.312],[54,35.2889],[54,35.2723],[54,35.2095],[54,35.1565],[54,35.0938],[54,35.0507],[54,35.0011],[54,34.9217],[54,34.8556],[54,34.7994],[54,34.7498],[54,34.7101],[54,34.6539],[54,34.634],[54,34.5877],[54,34.5546],[54,34.5447],[54,34.5183],[54,34.4918],[54,34.4752],[54,34.418],[54,34.3194],[54,34.3072],[54,34.2196],[54,34.0948],[54,33.842],[54,33.7119],[54,33.6389],[54,33.5883],[54,33.5604],[54,33.5587],[54,33.539],[54,33.5052],[54,33.4562],[54,33.3638],[54,33.3235],[54,33.1378],[54,33.0588],[54,32.9949],[54,32.7944],[54,32.6],[54,32.2494],[54,32.168],[54,31.9871],[54,31.8772],[54,31.7345],[54,31.6606],[54,31.4952],[54,31.4833],[54,31.4511],[54,31.4216],[54,31.3824],[54,31.2853],[54,31.0726],[54,30.9133],[54,30.8319],[54,30.5994],[54,30.3637],[54,30.1284],[54,29.8587],[54,29.6634],[54,29.5427],[54,29.3726],[54,29.3318],[54,29.265],[54,29.0061],[54,28.8709],[54,28.7916],[54,28.6677],[54,28.5465],[54,28.491],[54,28.4788],[54,28.4147],[54,28.3639],[54,28.2352],[54,28.2528],[54,28.2529],[54,28.2436],[54,28.2021],[54,28.0021],[54,27.8005],[54,27.497],[54,27.4445],[54,27.3567],[54,27.3002],[54,27.2656],[54,27.2502],[54,27.2294],[54,27.2184],[54,27.2525],[54,27.2439],[54,27.2079],[54,27.1515],[54,27.1246],[54,27.0777],[54,26.9981],[54,26.8792],[54,26.8647],[54,26.8376],[54,26.6656],[54,26.6498],[54,26.6323],[54,26.6439],[54,26.6392],[54,26.5937],[54,26.561],[54,26.5426],[54,26.4909],[54,26.4275],[54,26.3692],[54,26.357],[54,26.369],[54,26.3183],[54,26.2424],[54,26.2259],[54,26.1653],[54,26],[54,26.0372],[54,26.1588],[54,26.3714],[54,26.6801],[54,26.8007],[54,26.9055],[54,26.9946],[54,27.09],[54,27.1277],[54,27.2002],[54,27.1906],[54,27.1431],[54,27.0376],[54,26.9775],[54,26.9321],[54,26.8299],[54,26.7706],[54,26.7859],[54,26.7254],[54,26.5567],[54,26.5051],[54,26.5089],[54,26.5892],[54,26.6966],[54,26.7324],[53.8226,26.7077],[53.7058,26.7256],[53.5071,26.8518],[53.455,26.9433],[53.3417,27.0045],[52.9825,27.1419],[52.6916,27.3234],[52.6382,27.392],[52.6026,27.4934],[52.4759,27.6165],[52.1919,27.7173],[52.0308,27.8244],[51.842,27.8482],[51.6663,27.845],[51.5891,27.8642],[51.5186,27.91],[51.2789,28.1313],[51.2761,28.2188],[51.1284,28.4352],[51.0938,28.5121],[51.062,28.7261],[51.0212,28.7821],[50.867,28.8702],[50.843,28.9278],[50.8758,29.0044],[50.8758,29.0627],[50.7955,29.1174],[50.6752,29.1466],[50.6461,29.2122],[50.668,29.3398],[50.6496,29.4201],[50.5436,29.548],[50.3869,29.6791],[50.2302,29.8729],[50.1689,29.9212],[50.1289,30.0481],[50.0716,30.1985],[49.9831,30.2094],[49.5549,30.029],[49.43,30.1305],[49.0543,30.3069],[49.0281,30.3334],[49.002,30.3739],[49.049,30.3973],[49.0962,30.4068],[49.1903,30.3754],[49.2473,30.4125],[49.2245,30.4723],[49.1304,30.5094],[49.002,30.5065],[49.0371,30.4505],[48.9168,30.3973],[48.8912,30.3276],[48.9087,30.2415],[48.9191,30.1209],[48.8701,30.0624],[48.8324,30.0355],[48.6709,30.0283],[48.5955,29.975],[48.5465,29.9624],[48.4785,30.0038],[48.4346,30.0376],[48.3986,30.1096],[48.3876,30.1599],[48.4014,30.1883],[48.3826,30.2302],[48.3311,30.2854],[48.2789,30.3158],[48.2262,30.3213],[48.1824,30.355],[48.1476,30.4168],[48.0661,30.4577],[48.0149,30.4656],[48.0135,30.6564],[48.012,30.8236],[48.0106,30.9898],[47.8363,30.9964],[47.6795,31.0024],[47.6795,31.1415],[47.6795,31.4006],[47.7539,31.6014],[47.83,31.7944],[47.7146,31.9364],[47.5915,32.088],[47.5119,32.1508],[47.4182,32.3401],[47.3713,32.4237],[47.3298,32.4555],[47.2852,32.474],[47.1214,32.4666],[46.9686,32.5684],[46.7891,32.688],[46.5699,32.8339],[46.3771,32.9292],[46.2982,32.9502],[46.1128,32.9577],[46.0931,32.9759],[46.0805,33.0282],[46.0808,33.0865],[46.1411,33.1744],[46.1459,33.2296],[46.0199,33.4157],[45.9811,33.4701],[45.8732,33.492],[45.8947,33.5457],[45.8947,33.5815],[45.8794,33.6098],[45.8545,33.6233],[45.8229,33.6248],[45.7383,33.6028],[45.6737,33.6867],[45.4732,33.9255],[45.409,33.9545],[45.3971,33.9708],[45.4461,34.044],[45.5286,34.1525],[45.5428,34.2155],[45.5269,34.2847],[45.4376,34.4151],[45.4594,34.4704],[45.4978,34.5339],[45.5008,34.5816],[45.5608,34.5745],[45.6375,34.5738],[45.6615,34.6127],[45.6601,34.7488],[45.6781,34.7984],[45.9209,35.0285],[46.0418,35.0802],[46.1338,35.1276],[46.1547,35.1967],[46.1357,35.2323],[46.1178,35.2843],[46.1121,35.3217],[46.0106,35.4248],[45.9754,35.4768],[45.9711,35.5242],[45.995,35.6081],[46.0374,35.6731],[46.181,35.7114],[46.2625,35.7441],[46.2734,35.7732],[46.1675,35.8206],[45.9414,35.8354],[45.7764,35.8218],[45.7234,35.8367],[45.645,35.9284],[45.5616,35.9772],[45.4838,36.0085],[45.4077,36.0028],[45.3616,36.0153],[45.3509,36.0546],[45.2411,36.356],[45.2065,36.3972],[45.1553,36.4074],[45.1124,36.4093],[45.0838,36.43],[45.0531,36.4716],[45.0311,36.5261],[45.0294,36.5976],[45.034,36.6589],[45.0192,36.6984],[44.9814,36.7377],[44.9278,36.7659],[44.8809,36.7993],[44.7984,37.0639],[44.7654,37.135],[44.7651,37.1424],[44.7667,37.1563],[44.7583,37.2171],[44.7968,37.2698],[44.7941,37.2904],[44.7151,37.3571],[44.6041,37.4237],[44.574,37.4354],[44.5731,37.5064],[44.5771,37.5602],[44.5672,37.6086],[44.5461,37.6363],[44.5453,37.6582],[44.5899,37.7104],[44.5612,37.7446],[44.3978,37.8292],[44.3362,37.8718],[44.2229,37.8802],[44.2113,37.9081],[44.2289,37.9672],[44.268,38.0388],[44.3294,38.1093],[44.3489,38.1465],[44.3728,38.2097],[44.3809,38.2546],[44.4496,38.3178],[44.4499,38.3342],[44.4309,38.3568],[44.3758,38.3696],[44.3196,38.3747],[44.2985,38.3863],[44.2908,38.4201],[44.2979,38.5578],[44.2802,38.6407],[44.257,38.7006],[44.2717,38.836],[44.2324,38.8632],[44.1708,38.9344],[44.1445,38.9944],[44.1588,39.0167],[44.1719,39.0562],[44.1806,39.1081],[44.178,39.1448],[44.1213,39.1806],[44.0791,39.2183],[44.0743,39.26],[44.0575,39.3108],[44.0338,39.351],[44.0232,39.3774],[44.0439,39.393],[44.124,39.4052],[44.2404,39.3968],[44.3354,39.396],[44.3894,39.4221],[44.456,39.6667],[44.5167,39.7313],[44.5871,39.7686],[44.725,39.6817],[44.7821,39.6511],[44.8172,39.6504],[44.8382,39.6291],[45.0002,39.4235],[45.0717,39.3629],[45.1131,39.3116],[45.1412,39.2543],[45.1906,39.2156],[45.256,39.1947],[45.3355,39.1392],[45.3893,39.0959],[45.4797,39.0063],[45.575,38.9728],[45.9219,38.9079],[46.1145,38.8778],[46.1701,38.869],[46.3178,38.9126],[46.4906,38.9067],[46.5548,38.9044],[46.7832,39.0874],[46.8525,39.1484],[46.9889,39.1802],[47.0654,39.2529],[47.1884,39.341],[47.3385,39.4239],[47.4762,39.4983],[47.5818,39.5434],[47.7729,39.6486],[47.8923,39.6851],[47.9959,39.6839],[48.1511,39.5605],[48.2817,39.4483],[48.3222,39.3991],[48.2572,39.355],[48.136,39.3124],[48.1129,39.2811],[48.1044,39.2411],[48.1092,39.2028],[48.1255,39.1716],[48.2741,39.0991],[48.291,39.0593],[48.2921,39.0188],[48.2751,38.9936],[48.242,38.979],[48.1386,38.9586],[48.0501,38.935],[48.0193,38.9118],[47.9927,38.8843],[47.9965,38.8538],[48.0232,38.819],[48.2047,38.7241],[48.2252,38.6892],[48.2613,38.6423],[48.3056,38.6135],[48.3813,38.6056],[48.4174,38.5862],[48.5927,38.4111],[48.6355,38.3987],[48.8403,38.4373],[48.8687,38.4355],[48.8707,38.3925],[48.9014,38.1437],[48.9251,38.0151],[48.96,37.8901],[49.0153,37.7761],[49.081,37.6676],[49.1712,37.6006],[49.3725,37.52],[49.4701,37.4967],[49.727,37.4805],[49.9807,37.4449],[50.1305,37.4071],[50.1763,37.3805],[50.2141,37.3396],[50.3379,37.1492],[50.5332,37.0137],[50.9274,36.8102],[51.1186,36.7426],[51.762,36.6145],[52.1901,36.6217],[53.3741,36.8687],[53.7677,36.9303],[53.9154,36.9303],[53.8274,36.8812],[53.6795,36.8531],[53.7687,36.8185],[53.9063,36.8127],[53.9701,36.8183],[54,36.8497],[54,36.9013],[54,36.9525],[53.952,37.1817],[53.9142,37.3436],[54,37.3325],[54,37.3536],[54,37.4076],[54,37.4402],[54,37.4447],[54,37.4702],[54,37.5019],[54,37.7227],[54,37.7779],[54,37.9025],[54,37.9813],[54,38.0511],[54,38.0998],[54,38.0946],[54,38.0775],[54,38.0784],[54,38.0734],[54,38.0804],[54,38.0948],[54,38.1911],[54,38.2225],[54,38.2494],[54,38.2496],[54,38.2566],[54,38.25],[54,38.213],[54,38.21],[54,38.2164],[54,38.1796],[54,38.1304],[54,38.0893],[54,38.0329],[54,37.9899],[54,37.9733],[54,37.9477],[54,37.9285],[54,37.9053],[54,37.8608],[54,37.8305],[54,37.7831],[54,37.6658],[54,37.6472],[54,37.6354],[54,37.6385],[54,37.6882],[54,37.6516],[54,37.6563],[54,37.6835],[54,37.6497],[54,37.5208],[54,37.5237],[54,37.5106],[54,37.4812],[54,37.4447],[54,37.3337],[54,37.2528],[54,37.1789],[54,37.1385],[54,37.0416],[54,36.9629],[54,36.8294],[54,36.6536],[54,36.6376],[54,36.643],[54,36.6426],[54,36.5723],[54,36.4327],[54,36.2897],[54,36.1905],[54,36.0991],[54,36.0528],[54,35.9999],[54,35.9768],[54,35.9437],[54,35.8676],[54,35.7618],[54,35.7056],[54,35.6593],[54,35.6196]]]]}},{"type":"Feature","properties":{"name":"Iraq","adm0_a3":"IRQ"},"geometry":{"type":"Polygon","coordinates":[[[44.7651,37.1424],[44.7654,37.135],[44.7984,37.0639],[44.8809,36.7993],[44.9278,36.7659],[44.9814,36.7377],[45.0192,36.6984],[45.034,36.6589],[45.0294,36.5976],[45.0311,36.5261],[45.0531,36.4716],[45.0838,36.43],[45.1124,36.4093],[45.1553,36.4074],[45.2065,36.3972],[45.2411,36.356],[45.3509,36.0546],[45.3616,36.0153],[45.4077,36.0028],[45.4838,36.0085],[45.5616,35.9772],[45.645,35.9284],[45.7234,35.8367],[45.7764,35.8218],[45.9414,35.8354],[46.1675,35.8206],[46.2734,35.7732],[46.2625,35.7441],[46.181,35.7114],[46.0374,35.6731],[45.995,35.6081],[45.9711,35.5242],[45.9754,35.4768],[46.0106,35.4248],[46.1121,35.3217],[46.1178,35.2843],[46.1357,35.2323],[46.1547,35.1967],[46.1338,35.1276],[46.0418,35.0802],[45.9209,35.0285],[45.6781,34.7984],[45.6601,34.7488],[45.6615,34.6127],[45.6375,34.5738],[45.5608,34.5745],[45.5008,34.5816],[45.4978,34.5339],[45.4594,34.4704],[45.4376,34.4151],[45.5269,34.2847],[45.5428,34.2155],[45.5286,34.1525],[45.4461,34.044],[45.3971,33.9708],[45.409,33.9545],[45.4732,33.9255],[45.6737,33.6867],[45.7383,33.6028],[45.8229,33.6248],[45.8545,33.6233],[45.8794,33.6098],[45.8947,33.5815],[45.8947,33.5457],[45.8732,33.492],[45.9811,33.4701],[46.0199,33.4157],[46.1459,33.2296],[46.1411,33.1744],[46.0808,33.0865],[46.0805,33.0282],[46.0931,32.9759],[46.1128,32.9577],[46.2982,32.9502],[46.3771,32.9292],[46.5699,32.8339],[46.7891,32.688],[46.9686,32.5684],[47.1214,32.4666],[47.2852,32.474],[47.3298,32.4555],[47.3713,32.4237],[47.4182,32.3401],[47.5119,32.1508],[47.5915,32.088],[47.7146,31.9364],[47.83,31.7944],[47.7539,31.6014],[47.6795,31.4006],[47.6795,31.1415],[47.6795,31.0024],[47.8363,30.9964],[48.0106,30.9898],[48.012,30.8236],[48.0135,30.6564],[48.0149,30.4656],[48.0661,30.4577],[48.1476,30.4168],[48.1824,30.355],[48.2262,30.3213],[48.2789,30.3158],[48.3311,30.2854],[48.3826,30.2302],[48.4014,30.1883],[48.3876,30.1599],[48.3986,30.1096],[48.4346,30.0376],[48.4785,30.0038],[48.5465,29.9624],[48.4542,29.9385],[48.3546,29.9567],[48.1417,30.0409],[48.0728,30.0432],[47.9825,30.0113],[47.9787,29.9828],[47.7539,30.0766],[47.6728,30.0956],[47.6437,30.0973],[47.5148,30.0965],[47.3313,30.0797],[47.2232,30.0415],[47.1482,30.001],[47.1144,29.9613],[47.1021,29.94],[47.0437,29.823],[46.976,29.6729],[46.9059,29.5375],[46.7693,29.3475],[46.6938,29.2597],[46.5314,29.0962],[46.3564,29.0637],[45.9497,29.0958],[45.4989,29.1315],[45.0503,29.1671],[44.7165,29.1936],[44.6908,29.2023],[44.3607,29.4353],[44.0996,29.6193],[43.7737,29.8492],[43.4408,30.084],[43.1031,30.3222],[42.8577,30.4952],[42.5598,30.7178],[42.2886,30.9204],[42.0744,31.0804],[41.7997,31.2204],[41.5851,31.3297],[41.2725,31.489],[41.0225,31.6164],[40.8084,31.7254],[40.4789,31.8934],[40.3693,31.939],[40.0278,31.995],[39.7041,32.0425],[39.3687,32.0917],[39.1454,32.1245],[39.2928,32.2438],[39.2475,32.351],[39.14,32.3312],[39.0414,32.3057],[38.9816,32.4726],[39.0578,32.4932],[38.9874,32.7107],[38.9148,32.9347],[38.845,33.1509],[38.7735,33.3722],[39.0567,33.514],[39.2684,33.62],[39.5645,33.7684],[39.85,33.9114],[40.122,34.0477],[40.4215,34.1978],[40.6895,34.332],[40.9351,34.3866],[40.987,34.4291],[41.099,34.6123],[41.1947,34.769],[41.1992,34.8053],[41.1996,35.0274],[41.2164,35.2882],[41.2483,35.4275],[41.3033,35.5506],[41.3541,35.6404],[41.3594,35.7246],[41.3526,35.81],[41.3002,35.939],[41.2456,36.0734],[41.2518,36.203],[41.2618,36.2725],[41.296,36.3833],[41.3542,36.4644],[41.4168,36.5146],[41.6502,36.5664],[41.7886,36.5972],[41.974,36.7408],[42.084,36.826],[42.2373,36.9611],[42.3501,37.0606],[42.3591,37.095],[42.359,37.1086],[42.4559,37.1287],[42.6354,37.2493],[42.7411,37.3619],[42.7746,37.3719],[42.8691,37.3349],[42.9366,37.3248],[43.0925,37.3674],[43.1852,37.3449],[43.2631,37.3165],[43.3067,37.3146],[43.5158,37.2445],[43.568,37.2358],[43.6758,37.2272],[43.8364,37.2235],[43.94,37.2693],[44.0132,37.3135],[44.0646,37.3125],[44.1145,37.3019],[44.1563,37.283],[44.1918,37.2499],[44.2084,37.2026],[44.2017,37.0518],[44.2175,37.0119],[44.2457,36.9833],[44.2818,36.978],[44.3256,37.0107],[44.402,37.0585],[44.496,37.1105],[44.566,37.1583],[44.606,37.176],[44.6693,37.1736],[44.731,37.1653],[44.7651,37.1424]]]}},{"type":"Feature","properties":{"name":"Israel","adm0_a3":"ISR"},"geometry":{"type":"Polygon","coordinates":[[[34.9043,29.4773],[34.8698,29.5639],[34.7911,29.8121],[34.7351,29.982],[34.6586,30.1915],[34.5297,30.446],[34.5178,30.5074],[34.4899,30.5963],[34.401,30.8278],[34.3285,30.995],[34.2453,31.2083],[34.3483,31.2929],[34.3502,31.3627],[34.5256,31.5256],[34.5241,31.5417],[34.4773,31.5849],[34.484,31.5923],[34.6784,31.8957],[34.8038,32.1963],[34.9219,32.6141],[35.0059,32.8266],[35.0771,32.9672],[35.1086,33.0837],[35.2233,33.092],[35.3089,33.0795],[35.4112,33.0757],[35.4932,33.1195],[35.5325,33.2505],[35.5793,33.2715],[35.6029,33.2406],[35.6272,33.275],[35.7345,33.3326],[35.7875,33.3698],[35.8407,33.4157],[35.8691,33.4317],[35.8516,33.3705],[35.8371,33.3305],[35.837,33.2782],[35.8588,33.2496],[35.8885,33.1925],[35.9066,33.1357],[35.8681,33.0886],[35.8718,33.0394],[35.882,32.9981],[35.9135,32.9496],[35.8568,32.8624],[35.8015,32.7823],[35.7873,32.7349],[35.7345,32.7289],[35.6112,32.6821],[35.5945,32.668],[35.5729,32.6409],[35.569,32.6199],[35.5515,32.3955],[35.4844,32.4017],[35.4026,32.4506],[35.3867,32.493],[35.3621,32.5075],[35.3038,32.5129],[35.1933,32.5344],[35.065,32.4604],[35.0105,32.3382],[34.9995,32.2811],[34.956,32.1609],[34.9714,32.0871],[34.9788,31.9916],[34.9897,31.9133],[34.9783,31.8664],[34.9538,31.8413],[34.9611,31.8233],[34.983,31.8168],[35.0532,31.8379],[35.1271,31.8167],[35.198,31.7763],[35.2037,31.75],[35.1534,31.7345],[35.0347,31.6732],[34.951,31.6023],[34.9292,31.5366],[34.8728,31.3969],[34.8805,31.3682],[34.9078,31.3513],[35.1012,31.3662],[35.2767,31.4228],[35.4087,31.4829],[35.4506,31.4793],[35.4229,31.3254],[35.4235,31.3249],[35.4007,31.2305],[35.4097,31.2145],[35.4393,31.1324],[35.383,30.9823],[35.3201,30.8602],[35.2979,30.8022],[35.2366,30.6735],[35.174,30.5239],[35.1406,30.4209],[35.1481,30.3843],[35.1326,30.1953],[35.1416,30.1417],[35.0682,29.9779],[35.0534,29.8969],[35.0239,29.7871],[34.9734,29.555],[34.9043,29.4773]]]}},{"type":"Feature","properties":{"name":"Jordan","adm0_a3":"JOR"},"geometry":{"type":"Polygon","coordinates":[[[38.7735,33.3722],[38.845,33.1509],[38.9148,32.9347],[38.9874,32.7107],[39.0578,32.4932],[38.9816,32.4726],[39.0414,32.3057],[39.14,32.3312],[39.2475,32.351],[39.2928,32.2438],[39.1454,32.1245],[38.9971,32.0075],[38.9623,31.9949],[38.7696,31.9465],[38.3755,31.8475],[38.1114,31.7812],[37.7738,31.6963],[37.4934,31.6259],[37.2156,31.5561],[36.9586,31.4915],[37.1053,31.3552],[37.3295,31.1468],[37.479,31.0078],[37.6555,30.829],[37.813,30.6693],[37.9801,30.5],[37.8629,30.4426],[37.6697,30.3481],[37.6499,30.331],[37.6336,30.3133],[37.5536,30.1446],[37.4907,30.0117],[37.4692,29.9951],[37.1994,29.9463],[36.9271,29.8971],[36.7553,29.866],[36.7039,29.8316],[36.5918,29.6661],[36.4761,29.4951],[36.2828,29.3554],[36.0685,29.2005],[36.0154,29.1905],[35.8604,29.2143],[35.5953,29.2549],[35.3392,29.2941],[35.1638,29.3209],[34.9508,29.3535],[34.9822,29.4845],[34.9734,29.555],[35.0239,29.7871],[35.0534,29.8969],[35.0682,29.9779],[35.1416,30.1417],[35.1326,30.1953],[35.1481,30.3843],[35.1406,30.4209],[35.174,30.5239],[35.2366,30.6735],[35.2979,30.8022],[35.3201,30.8602],[35.383,30.9823],[35.4393,31.1324],[35.4097,31.2145],[35.4007,31.2305],[35.4235,31.3249],[35.4229,31.3254],[35.4506,31.4793],[35.4654,31.5624],[35.4994,31.6724],[35.559,31.7655],[35.5314,31.9849],[35.5348,32.103],[35.5721,32.2379],[35.5515,32.3955],[35.569,32.6199],[35.5729,32.6409],[35.5945,32.668],[35.6112,32.6821],[35.7345,32.7289],[35.7873,32.7349],[35.8947,32.7138],[35.9564,32.6667],[36.0595,32.5338],[36.2197,32.4951],[36.2843,32.4575],[36.3721,32.3869],[36.4792,32.3613],[36.8184,32.3173],[37.089,32.4655],[37.3176,32.5908],[37.5774,32.7331],[37.7541,32.8298],[38.0558,32.9949],[38.2543,33.0992],[38.5156,33.2366],[38.7735,33.3722]]]}},{"type":"Feature","properties":{"name":"Lebanon","adm0_a3":"LBN"},"geometry":{"type":"Polygon","coordinates":[[[35.8691,33.4317],[35.8407,33.4157],[35.7875,33.3698],[35.7345,33.3326],[35.6272,33.275],[35.6029,33.2406],[35.5793,33.2715],[35.5325,33.2505],[35.4932,33.1195],[35.4112,33.0757],[35.3089,33.0795],[35.2233,33.092],[35.1086,33.0837],[35.1551,33.16],[35.2035,33.259],[35.2514,33.3926],[35.3357,33.5035],[35.5108,33.8797],[35.6118,34.0322],[35.6479,34.2482],[35.8043,34.4374],[35.9214,34.4933],[35.9779,34.5474],[35.9763,34.6292],[36.1511,34.6286],[36.2636,34.6329],[36.2963,34.6787],[36.3839,34.6579],[36.433,34.6135],[36.3887,34.5669],[36.3263,34.5133],[36.3299,34.4996],[36.3765,34.4952],[36.4556,34.4662],[36.5044,34.4324],[36.585,34.2212],[36.5352,34.1343],[36.4575,34.0568],[36.4229,34.0499],[36.3549,34.0113],[36.2979,33.9586],[36.2778,33.9253],[36.2822,33.8942],[36.3628,33.8551],[36.365,33.8394],[36.3485,33.8271],[36.2834,33.8356],[36.1994,33.8396],[36.1498,33.8395],[36.0922,33.8316],[36.0188,33.7839],[35.9861,33.7526],[35.9685,33.7324],[35.9424,33.6676],[35.9717,33.6231],[36.0267,33.5979],[36.0345,33.5851],[36.0223,33.5625],[35.9676,33.5346],[35.9266,33.5003],[35.9147,33.4654],[35.8691,33.4317]]]}},{"type":"Feature","properties":{"name":"Moldova","adm0_a3":"MDA"},"geometry":{"type":"Polygon","coordinates":[[[28.2125,45.4504],[28.1625,45.5138],[28.1119,45.5691],[28.0747,45.599],[28.0903,45.6127],[28.1309,45.6283],[28.1598,45.6471],[28.1563,45.7131],[28.135,45.7889],[28.1155,45.8255],[28.1136,45.8831],[28.0997,45.9726],[28.1191,46.1387],[28.1996,46.3476],[28.2443,46.4513],[28.2227,46.5081],[28.2395,46.6408],[28.2047,46.7064],[28.15,46.7921],[28.0718,46.9784],[27.9742,47.0432],[27.8538,47.1145],[27.8023,47.1683],[27.768,47.2276],[27.6962,47.2864],[27.6141,47.3405],[27.5158,47.4756],[27.4648,47.5367],[27.4492,47.5531],[27.3369,47.6397],[27.2779,47.718],[27.2481,47.7822],[27.2309,47.8417],[27.1521,47.9593],[27.0804,48.0477],[27.0122,48.1105],[26.9808,48.155],[26.901,48.2111],[26.7873,48.2558],[26.7138,48.2635],[26.6189,48.2599],[26.6404,48.2941],[26.8471,48.3872],[26.9006,48.3719],[27.0085,48.3683],[27.2285,48.3714],[27.3369,48.4327],[27.4038,48.4156],[27.4584,48.4431],[27.5492,48.4777],[27.5622,48.4704],[27.5737,48.4649],[27.7145,48.4495],[27.82,48.4163],[27.8906,48.3652],[27.9634,48.3335],[28.0385,48.3213],[28.0801,48.2958],[28.0885,48.257],[28.1588,48.238],[28.291,48.2386],[28.3472,48.213],[28.327,48.1614],[28.3405,48.1444],[28.3875,48.1621],[28.423,48.1469],[28.442,48.1087],[28.4631,48.0905],[28.5305,48.1503],[28.6017,48.1444],[28.7738,48.1196],[28.8658,47.9957],[28.9231,47.9511],[28.9733,47.933],[29.0369,47.9523],[29.093,47.9754],[29.1254,47.9646],[29.1948,47.8824],[29.2111,47.775],[29.2107,47.7315],[29.186,47.6586],[29.1509,47.5809],[29.1229,47.5304],[29.1349,47.4897],[29.1598,47.4557],[29.2006,47.4445],[29.3338,47.3757],[29.3834,47.328],[29.4557,47.2926],[29.5106,47.2907],[29.5392,47.271],[29.5493,47.2468],[29.5418,47.1855],[29.5109,47.128],[29.515,47.0911],[29.5635,47.0475],[29.5687,46.9967],[29.572,46.964],[29.5978,46.9388],[29.7197,46.8829],[29.8778,46.8289],[29.9181,46.7824],[29.9425,46.7238],[29.9348,46.625],[29.9243,46.5389],[30.1311,46.4231],[30.1075,46.4016],[30.0757,46.3778],[29.878,46.3602],[29.8379,46.3505],[29.752,46.4378],[29.7068,46.4487],[29.6646,46.4167],[29.6149,46.3988],[29.5551,46.4078],[29.491,46.4347],[29.4588,46.4538],[29.4328,46.456],[29.3929,46.4369],[29.3396,46.4451],[29.3049,46.4666],[29.2546,46.3926],[29.2238,46.377],[29.2046,46.3793],[29.2008,46.505],[29.1862,46.524],[29.1463,46.5269],[29.0499,46.497],[28.9584,46.4585],[28.9274,46.4241],[28.9306,46.3623],[28.9438,46.2884],[29.0063,46.1765],[28.9719,46.1276],[28.9478,46.05],[28.8495,45.9787],[28.7388,45.9372],[28.7293,45.852],[28.6676,45.7938],[28.5623,45.7358],[28.4916,45.6658],[28.5095,45.6178],[28.5138,45.5724],[28.5018,45.5416],[28.499,45.5177],[28.4714,45.5072],[28.3104,45.4986],[28.2648,45.4839],[28.2125,45.4504]]]}},{"type":"Feature","properties":{"name":"Palestine","adm0_a3":"PSX"},"geometry":{"type":"MultiPolygon","coordinates":[[[[34.2453,31.2083],[34.2125,31.2923],[34.1981,31.3226],[34.3873,31.4838],[34.4773,31.5849],[34.5241,31.5417],[34.5256,31.5256],[34.3502,31.3627],[34.3483,31.2929],[34.2453,31.2083]]],[[[35.4506,31.4793],[35.4087,31.4829],[35.2767,31.4228],[35.1012,31.3662],[34.9078,31.3513],[34.8805,31.3682],[34.8728,31.3969],[34.9292,31.5366],[34.951,31.6023],[35.0347,31.6732],[35.1534,31.7345],[35.2037,31.75],[35.198,31.7763],[35.1271,31.8167],[35.0532,31.8379],[34.983,31.8168],[34.9611,31.8233],[34.9538,31.8413],[34.9783,31.8664],[34.9897,31.9133],[34.9788,31.9916],[34.9714,32.0871],[34.956,32.1609],[34.9995,32.2811],[35.0105,32.3382],[35.065,32.4604],[35.1933,32.5344],[35.3038,32.5129],[35.3621,32.5075],[35.3867,32.493],[35.4026,32.4506],[35.4844,32.4017],[35.5515,32.3955],[35.5721,32.2379],[35.5348,32.103],[35.5314,31.9849],[35.559,31.7655],[35.4994,31.6724],[35.4654,31.5624],[35.4506,31.4793]]]]}},{"type":"Feature","properties":{"name":"Romania","adm0_a3":"ROU"},"geometry":{"type":"Polygon","coordinates":[[[28.5854,43.7422],[28.4234,43.7405],[28.3752,43.7448],[28.222,43.7729],[28.05,43.8224],[27.9489,43.9186],[27.8843,43.9874],[27.7386,43.9563],[27.7107,43.9646],[27.6709,43.9978],[27.561,44.0201],[27.4254,44.0205],[27.1207,44.1461],[27.0869,44.1674],[26.8478,44.1462],[26.4893,44.084],[26.2158,44.0073],[25.9334,43.8706],[25.8188,43.7668],[25.6861,43.7118],[25.4971,43.6708],[25.1597,43.6863],[24.8082,43.7384],[24.4306,43.7944],[24.2268,43.7635],[23.9508,43.7867],[23.5346,43.8536],[23.2246,43.8739],[22.919,43.8345],[22.8677,43.8646],[22.8564,43.899],[22.8683,43.9479],[22.9113,43.9872],[22.9854,44.017],[23.0244,44.0472],[23.0285,44.078],[22.9454,44.1273],[22.7752,44.1952],[22.7051,44.2378],[22.6879,44.2483],[22.6833,44.2865],[22.6479,44.3165],[22.5818,44.3383],[22.5307,44.378],[22.4945,44.4354],[22.5023,44.4896],[22.554,44.5403],[22.6201,44.5624],[22.7008,44.5555],[22.7344,44.5699],[22.7209,44.6055],[22.6421,44.651],[22.4977,44.7062],[22.3507,44.6761],[22.201,44.5607],[22.0931,44.5419],[22.027,44.6199],[21.9093,44.6661],[21.7402,44.6807],[21.6361,44.7104],[21.5971,44.7554],[21.5231,44.7901],[21.3601,44.8267],[21.3579,44.8618],[21.3844,44.8701],[21.4422,44.8734],[21.5199,44.8808],[21.5323,44.9007],[21.5332,44.9188],[21.472,44.942],[21.41,44.9577],[21.3777,44.9734],[21.357,44.9908],[21.3529,45.009],[21.3711,45.0214],[21.3959,45.0222],[21.4207,45.033],[21.4345,45.0751],[21.4679,45.1099],[21.4918,45.1223],[21.4902,45.1479],[21.4654,45.1719],[21.4314,45.1925],[21.3817,45.2051],[21.2265,45.2413],[21.1479,45.2917],[21.0999,45.2936],[21.0238,45.3215],[20.9418,45.3653],[20.8708,45.4275],[20.794,45.4679],[20.7742,45.4844],[20.7725,45.5001],[20.7865,45.5175],[20.786,45.5365],[20.7658,45.5975],[20.7793,45.662],[20.7758,45.7225],[20.775,45.7498],[20.7602,45.7581],[20.7469,45.749],[20.7278,45.7374],[20.7093,45.7353],[20.6527,45.7794],[20.5812,45.8695],[20.5326,45.8995],[20.438,45.9408],[20.3586,45.9755],[20.3014,46.0507],[20.2418,46.1086],[20.281,46.133],[20.5081,46.1669],[20.6137,46.1335],[20.661,46.1457],[20.7074,46.1728],[20.7327,46.1944],[20.7374,46.2175],[20.7603,46.2462],[20.837,46.2597],[21.0398,46.2422],[21.1217,46.2824],[21.152,46.3043],[21.1704,46.3527],[21.1918,46.3916],[21.2646,46.4123],[21.2633,46.4478],[21.2522,46.4864],[21.2945,46.5725],[21.3202,46.6078],[21.3613,46.6208],[21.411,46.6479],[21.4971,46.7043],[21.4771,46.7534],[21.4944,46.7897],[21.5842,46.8784],[21.6526,46.9638],[21.6515,47.0065],[21.6614,47.0439],[21.7218,47.0848],[21.7854,47.1381],[21.8693,47.3046],[21.8992,47.3326],[21.9543,47.3643],[21.9953,47.3957],[21.9997,47.505],[22.038,47.5366],[22.1119,47.572],[22.1851,47.6291],[22.2446,47.6964],[22.2906,47.7278],[22.3515,47.7362],[22.4175,47.7626],[22.4914,47.7726],[22.5629,47.7596],[22.6084,47.7663],[22.6768,47.799],[22.8518,47.9226],[22.8767,47.9473],[22.9129,47.9643],[23.0548,48.0065],[23.0908,48.0491],[23.1395,48.0874],[23.2026,48.0845],[23.4082,47.99],[23.6287,47.9958],[23.669,47.9923],[23.682,47.9904],[23.709,47.9826],[24.0019,47.9358],[24.0474,47.941],[24.0598,47.9448],[24.1777,47.9061],[24.2819,47.9112],[24.381,47.938],[24.4841,47.9471],[24.5789,47.9311],[24.651,47.8765],[24.8379,47.7608],[24.8934,47.7178],[24.9791,47.7241],[25.0738,47.7457],[25.1696,47.8231],[25.4643,47.9108],[25.6893,47.9325],[25.9087,47.9676],[26.1627,47.9925],[26.2362,48.0644],[26.277,48.1132],[26.3057,48.2038],[26.4424,48.23],[26.5725,48.2485],[26.6189,48.2599],[26.7138,48.2635],[26.7873,48.2558],[26.901,48.2111],[26.9808,48.155],[27.0122,48.1105],[27.0804,48.0477],[27.1521,47.9593],[27.2309,47.8417],[27.2481,47.7822],[27.2779,47.718],[27.3369,47.6397],[27.4492,47.5531],[27.4648,47.5367],[27.5158,47.4756],[27.6141,47.3405],[27.6962,47.2864],[27.768,47.2276],[27.8023,47.1683],[27.8538,47.1145],[27.9742,47.0432],[28.0718,46.9784],[28.15,46.7921],[28.2047,46.7064],[28.2395,46.6408],[28.2227,46.5081],[28.2443,46.4513],[28.1996,46.3476],[28.1191,46.1387],[28.0997,45.9726],[28.1136,45.8831],[28.1155,45.8255],[28.135,45.7889],[28.1563,45.7131],[28.1598,45.6471],[28.1309,45.6283],[28.0903,45.6127],[28.0747,45.599],[28.1119,45.5691],[28.1625,45.5138],[28.2125,45.4504],[28.3177,45.3471],[28.4513,45.2922],[28.7607,45.2341],[28.7883,45.241],[28.7914,45.2519],[28.7698,45.2669],[28.7666,45.2862],[28.7817,45.3099],[28.8243,45.3111],[28.8943,45.2899],[29.0274,45.3206],[29.2235,45.4029],[29.4037,45.4197],[29.5677,45.3708],[29.652,45.3139],[29.7059,45.2599],[29.6891,45.1932],[29.6786,45.1517],[29.6354,44.9796],[29.6055,44.9155],[29.5575,44.8434],[29.0482,44.7576],[29.0811,44.7988],[29.0691,44.8711],[29.0478,44.9257],[29.0953,44.975],[28.9807,44.9929],[28.9306,44.9658],[28.8915,44.9187],[28.9262,44.81],[28.8704,44.75],[28.849,44.7163],[28.8465,44.6369],[28.8136,44.6025],[28.807,44.565],[28.8882,44.5748],[28.8518,44.5061],[28.6992,44.3742],[28.6454,44.2957],[28.6586,43.9838],[28.5907,43.7974],[28.5854,43.7422]]]}},{"type":"Feature","properties":{"name":"Russia","adm0_a3":"RUS"},"geometry":{"type":"MultiPolygon","coordinates":[[[[48.5729,41.8445],[48.5187,41.7793],[48.4307,41.6633],[48.3914,41.6019],[48.2981,41.545],[48.1423,41.4848],[48.0561,41.4587],[47.9637,41.334],[47.8611,41.2127],[47.791,41.1993],[47.5918,41.2181],[47.5206,41.2291],[47.3177,41.2824],[47.2611,41.3151],[47.2053,41.4556],[47.1426,41.5161],[47.064,41.5547],[47.0102,41.5875],[46.9878,41.6214],[46.9309,41.6704],[46.8256,41.7434],[46.7493,41.8126],[46.6903,41.8313],[46.616,41.8069],[46.5713,41.8001],[46.5521,41.8123],[46.5377,41.8704],[46.4299,41.891],[46.4115,41.9046],[46.2678,41.9604],[46.2127,41.9899],[46.1598,41.992],[46.0484,42.0087],[45.954,42.0354],[45.9104,42.0707],[45.846,42.11],[45.7266,42.1589],[45.6386,42.2051],[45.6343,42.2347],[45.6884,42.3574],[45.7275,42.475],[45.7053,42.4981],[45.6556,42.5177],[45.5629,42.5357],[45.3438,42.5298],[45.2082,42.6482],[45.1603,42.675],[45.0716,42.6941],[44.9434,42.7303],[44.871,42.7564],[44.8505,42.7468],[44.7711,42.6168],[44.6918,42.7096],[44.6443,42.7347],[44.5765,42.7485],[44.5059,42.7486],[44.3295,42.7035],[44.1997,42.6536],[44.1027,42.6164],[44.0047,42.5956],[43.9574,42.5666],[43.826,42.5715],[43.7599,42.5938],[43.7384,42.617],[43.7499,42.6575],[43.7954,42.703],[43.7987,42.7278],[43.7826,42.747],[43.623,42.8077],[43.5578,42.8445],[43.3479,42.8967],[43.0892,42.9891],[43.0002,43.0497],[42.9916,43.0915],[42.89,43.1326],[42.7606,43.1696],[42.6603,43.1591],[42.566,43.1551],[42.419,43.2242],[42.2797,43.2281],[42.1223,43.2073],[42.0878,43.1991],[42.05,43.1901],[41.5806,43.2192],[41.4607,43.2763],[41.3582,43.3334],[41.0831,43.3745],[40.942,43.4181],[40.8017,43.4799],[40.648,43.5339],[40.5189,43.512],[40.3423,43.5427],[40.1502,43.5698],[40.0846,43.5531],[40.0237,43.4849],[39.9783,43.4198],[39.8736,43.4728],[39.5167,43.7279],[39.3294,43.8973],[38.7173,44.2881],[38.6358,44.318],[38.3118,44.3745],[38.1812,44.4197],[37.8515,44.6988],[37.7049,44.6614],[37.5725,44.6708],[37.4951,44.6953],[37.4113,44.7354],[37.3523,44.7884],[37.2841,44.905],[37.2048,44.972],[36.9444,45.0696],[36.6508,45.1265],[36.6276,45.1513],[36.6191,45.1855],[36.873,45.2518],[36.9412,45.2897],[36.811,45.34],[36.7616,45.3483],[36.7204,45.3719],[36.7938,45.4097],[36.8659,45.4271],[36.9778,45.3836],[37.1035,45.3029],[37.2136,45.2723],[37.2643,45.3109],[37.6472,45.3772],[37.6729,45.4297],[37.6719,45.4884],[37.6344,45.4863],[37.61,45.4995],[37.6124,45.5647],[37.6692,45.6541],[37.8409,45.7996],[37.9331,46.0017],[38.0143,46.0478],[38.0738,46.0171],[38.0697,45.9699],[38.0796,45.9348],[38.1328,46.0028],[38.1836,46.0948],[38.3118,46.0954],[38.4004,46.08],[38.4923,46.0905],[38.3152,46.2419],[38.0777,46.3943],[37.9775,46.3829],[37.9139,46.4065],[37.8096,46.5321],[37.7665,46.6361],[37.8674,46.6338],[37.968,46.618],[38.1595,46.6907],[38.23,46.7013],[38.3435,46.6783],[38.501,46.6637],[38.488,46.7322],[38.4387,46.8131],[38.6308,46.873],[38.8011,46.9062],[39.1268,47.0234],[39.2707,47.0441],[39.2891,47.0709],[39.2935,47.1058],[39.2445,47.1995],[39.1957,47.2688],[39.0237,47.2722],[38.9283,47.1757],[38.6682,47.1439],[38.5524,47.1503],[38.6443,47.2122],[38.736,47.2358],[38.7619,47.2616],[38.5772,47.2391],[38.4848,47.1755],[38.2144,47.0915],[38.2059,47.1356],[38.2014,47.1752],[38.2212,47.2127],[38.2653,47.237],[38.2808,47.259],[38.2808,47.2767],[38.241,47.2877],[38.208,47.2965],[38.2014,47.3208],[38.2124,47.3428],[38.2433,47.3737],[38.2565,47.4089],[38.2588,47.4795],[38.2874,47.5592],[38.3688,47.61],[38.5109,47.6224],[38.6406,47.6659],[38.7189,47.7141],[38.8223,47.837],[38.9003,47.8551],[39.0578,47.8485],[39.1585,47.8374],[39.391,47.8337],[39.6585,47.8412],[39.7359,47.8448],[39.7787,47.8875],[39.7758,47.9645],[39.814,48.0353],[39.8851,48.1684],[39.961,48.2379],[39.9579,48.2689],[39.9182,48.2819],[39.8663,48.2884],[39.8475,48.3028],[39.8499,48.3319],[39.8898,48.3604],[39.8826,48.4191],[39.8575,48.4842],[39.8356,48.5428],[39.7654,48.5719],[39.6447,48.5912],[39.6704,48.6625],[39.7046,48.7394],[39.7559,48.7821],[39.7929,48.8077],[39.9041,48.7938],[39.9845,48.8074],[40.0036,48.8221],[39.9892,48.8514],[39.8638,48.878],[39.7533,48.9145],[39.7057,48.9596],[39.6865,49],[39.7595,49],[39.8897,49],[39.9764,49],[40.07,49],[40.1088,49],[40.1283,49],[40.1262,49],[40.0578,49],[40.0949,49],[40.0807,49],[40.0307,49],[39.9585,49],[39.8769,49],[39.7806,49],[39.6266,49],[39.4628,49],[39.3685,49],[39.3029,49],[39.246,49],[39.2118,49],[39.1748,49],[39.1149,49],[39.0277,49],[38.9184,49],[38.7767,49],[38.6478,49],[38.552,49],[38.4512,49],[38.2586,49],[38.2087,49],[38.1775,49],[38.1627,49],[38.1468,49],[38.1125,49],[38.0469,49],[37.9503,49],[37.7042,49],[37.6051,49],[37.5823,49],[37.5014,49],[37.4229,49],[37.3432,49],[37.2549,49],[37.1711,49],[37.1313,49],[36.9885,49],[36.7591,49],[36.6964,49],[36.6194,49],[36.5597,49],[36.4998,49],[36.3688,49],[36.3061,49],[36.2434,49],[36.1895,49],[36.1164,49],[36.0078,49],[35.8902,49],[35.7962,49],[35.6737,49],[35.5911,49],[35.5455,49],[35.4885,49],[35.4116,49],[35.3917,49],[35.4116,49],[35.4401,49],[35.4174,49],[35.3832,49],[35.3461,49],[35.3147,49],[35.3091,49],[35.3348,49],[35.3119,49],[35.2691,49],[35.198,49],[35.1581,49],[35.1153,49],[35.0926,49],[35.0641,49],[34.9902,49],[34.8686,49],[34.7604,49],[34.7123,49],[34.6168,49],[34.491,49],[34.2342,49],[34.2139,49],[34.2284,49],[34.2807,49],[34.275,49],[34.2299,49],[34.2065,49],[34.2093,49],[34.2009,49],[34.1468,49],[34.1154,49],[34.1211,49],[34.2392,49],[34.3793,49],[34.4027,49],[34.3979,49],[34.1131,49],[34.0153,49],[33.9221,49],[33.8188,49],[33.7353,49],[33.6134,49],[33.4519,49],[33.2871,49],[33.1484,49],[32.8997,49],[32.8064,49],[32.6454,49],[32.5079,49],[32.4354,49],[32.3913,49],[32.363,49],[32.2828,49],[32.2168,49],[32.1223,49],[32.0416,49],[31.9738,49],[31.8756,49],[31.7824,49],[31.7634,49],[31.7586,49],[31.6906,49],[31.6499,49],[31.6016,49],[31.5773,49],[31.5766,49],[31.5855,49],[31.6159,49],[31.5262,49],[31.5194,49],[31.5635,49],[31.5648,49],[31.5352,49],[31.4428,49],[31.353,49],[31.2951,49],[31.2588,49],[31.3029,49],[31.3646,49],[31.3884,49],[31.4179,49],[31.563,49],[31.6683,49],[31.7475,49],[31.7774,49],[31.8497,49],[32.0555,49],[32.142,49],[32.2507,49],[32.4263,49],[32.4693,49],[32.578,49],[32.6444,49],[32.7043,49],[32.7103,49],[32.7064,49],[32.6857,49],[32.4696,49],[32.4424,49],[32.4252,49],[32.451,49],[32.4502,49],[32.2004,49],[31.9922,49],[31.8208,49],[31.7542,49],[31.783,49],[31.8253,49],[31.8378,49],[31.826,49],[31.792,49],[31.6284,49],[31.4036,49],[31.2991,49],[31.2455,49],[31.1848,49],[31.0748,49],[31.0819,49],[31.1549,49],[31.1521,49],[31.1213,49],[30.9842,49],[30.7988,49],[30.791,49],[30.8045,49],[30.8299,49],[30.8668,49],[30.9777,49],[30.9589,49],[30.8774,49],[30.8145,49],[30.8105,49],[30.821,49],[30.8618,49],[30.9006,49],[30.9088,49],[30.9068,49],[30.8822,49],[30.856,49],[30.8008,49],[30.7217,49],[30.6623,49],[30.6256,49],[30.5867,49],[30.4754,49],[30.4563,49],[30.2336,49],[30.0427,49],[29.937,49],[29.8816,49],[29.8239,49],[29.7441,49],[29.6846,49],[29.6301,49],[29.4822,49],[29.413,49],[29.3534,49],[29.3731,49],[29.3979,49],[29.3961,49],[29.375,49],[29.283,49],[29.0874,49],[29.0317,49],[28.9475,49],[28.7947,49],[28.7408,49],[28.6908,49],[28.6369,49],[28.564,49],[28.407,49],[28.3921,49],[28.3163,49],[28.2843,49],[28.1479,49],[28.1733,49],[28.2021,49],[28.1917,49],[28.1692,49],[28.1108,49],[28.1031,49],[28.0075,49],[27.9916,49],[27.9414,49],[27.8921,49],[27.8815,49],[27.8486,49],[27.8061,49],[27.6557,49],[27.6395,49],[27.7111,49],[27.7174,49],[27.7628,49],[27.8146,49],[27.8303,49],[27.8383,49],[27.8286,49],[27.7969,49],[27.6728,49],[27.5387,49],[27.5111,49],[27.4697,49],[27.352,49],[27.3543,49],[27.3718,49],[27.4,49],[27.492,49],[27.5147,49],[27.5421,49],[27.7528,49],[27.777,49],[27.7785,49],[27.7688,49],[27.722,49],[27.6734,49],[27.6441,49],[27.5711,49],[27.5024,49],[27.4878,49],[27.5056,49],[27.5301,49],[27.5313,49],[27.4271,49],[27.4342,49],[27.4645,49],[27.5131,49],[27.6218,49],[27.7576,49],[27.8495,49],[27.8977,49],[27.9382,49],[28.0164,49],[28.0461,49],[28.0613,49],[28.1283,49],[28.1511,49],[28.133,49],[28.0658,49],[28.0125,49],[28.064,49],[28.0463,49],[28.014,49],[28.058,49],[28.1312,49],[28.2125,49],[28.3346,49],[28.4237,49],[28.4539,49],[28.5182,49],[28.6039,49],[28.7477,49],[28.8669,49],[28.9473,49],[28.9815,49],[29.0134,49],[29.0791,49],[29.1473,49],[29.6697,49],[30.1226,49],[30.1568,49],[30.1727,49],[30.06,49],[29.9768,49],[29.8723,49],[29.7212,49],[29.5693,49],[29.3704,49],[29.0691,49],[28.8127,49],[28.6432,49],[28.5223,49],[28.4916,49],[28.6225,49],[28.6403,49],[28.6506,49],[28.5778,49],[28.5128,49],[28.1793,49],[27.7977,49],[28.152,49],[28.4074,49],[28.4551,49],[28.5682,49],[28.6629,49],[28.7391,49],[28.993,49],[29.2517,49],[29.4924,49],[29.5794,49],[29.6901,49],[29.9332,49],[30.01,49],[30.3064,49],[30.4797,49],[30.5656,49],[30.9357,49],[31.1867,49],[31.2856,49],[31.3824,49],[31.4373,49],[31.534,49],[31.5365,49],[31.5093,49],[31.437,49],[31.3367,49],[31.2475,49],[31.1809,49],[30.9748,49],[30.6553,49],[30.4186,49],[30.0554,49],[29.9915,49],[30.0041,49],[30.2103,49],[30.4153,49],[30.5039,49],[30.5261,49],[30.5279,49],[30.5138,49],[30.4879,49],[30.3906,49],[30.1081,49],[30.0419,49],[29.9866,49],[29.9855,49],[30.1201,49],[30.1262,49],[30.1103,49],[30.0729,49],[29.7832,49],[29.7017,49],[29.6375,49],[29.6042,49],[29.6009,49],[29.6225,49],[29.72,49],[29.8108,49],[29.827,49],[29.8262,49],[29.8105,49],[29.6297,49],[29.6124,49],[29.608,49],[29.6172,49],[29.7148,49],[29.728,49],[29.8194,49],[29.7159,49],[29.7239,49],[29.8826,49],[30.029,49],[30.0953,49],[30.1027,49],[30.0875,49],[29.9366,49],[29.9034,49],[29.8035,49],[29.7207,49],[29.6709,49],[29.5907,49],[29.5443,49],[29.4644,49],[29.3712,49],[29.2933,49],[29.0931,49],[29.0662,49],[29.069,49],[29.087,49],[29.2434,49],[29.3877,49],[29.5723,49],[29.7506,49],[29.9412,49],[29.9881,49],[29.9792,49],[29.8216,49],[29.5242,49],[29.3438,49],[29.063,49],[28.6852,49],[28.5602,49],[28.4707,49],[28.4793,49],[28.7521,49],[28.7776,49],[28.7729,49],[28.7448,49],[28.706,49],[28.4535,49],[28.4141,49],[28.566,49],[28.6922,49],[28.8989,49],[28.9658,49],[29.1186,49],[29.1709,49],[29.21,49],[29.353,49],[29.3883,49],[29.8327,49],[29.994,49],[30.0873,49],[30.1318,49],[30.1638,49],[30.1867,49],[30.1965,49],[30.1598,49],[30.1802,49],[30.2275,49],[30.3797,49],[30.6154,49],[30.7889,49],[30.8607,49],[30.8967,49],[30.9225,49],[30.9241,49],[30.8697,49],[31.0495,49],[31.4527,49],[31.547,49],[31.6662,49],[31.7886,49],[31.8794,49],[31.9979,49],[32.0306,49],[31.9693,49],[31.9846,49],[32.3916,49],[32.5654,49],[32.9417,49],[33.0078,49],[33.0126,49],[32.9946,49],[32.915,49],[32.7543,49],[32.1768,49],[32.0915,49],[32.1613,49],[32.3306,49],[32.3777,49],[32.6368,49],[32.8838,49],[32.9998,49],[33.021,49],[32.9416,49],[32.9789,49],[33.2559,49],[33.3849,49],[33.4543,49],[33.4637,49],[33.418,49],[33.413,49],[33.3277,49],[33.1964,49],[33.1412,49],[33.3334,49],[33.4356,49],[33.6271,49],[33.6844,49],[34.2294,49],[34.3527,49],[34.864,49],[35.0096,49],[35.1759,49],[35.2332,49],[35.2898,49],[35.8579,49],[36.6183,49],[37.7306,49],[38.3576,49],[38.4302,49],[38.6568,49],[38.7056,49],[38.8315,49],[39.5689,49],[39.8233,49],[39.7897,49],[39.7463,49],[39.8093,49],[39.8956,49],[40.0357,49],[40.2066,49],[40.3807,49],[40.5258,49],[40.6565,49],[40.7663,49],[40.9664,49],[41.0609,49],[41.1339,49],[41.2617,49],[41.3588,49],[41.3543,49],[41.2756,49],[41.189,49],[40.5216,49],[40.1033,49],[39.2891,49],[38.6539,49],[38.3976,49],[37.9007,49],[37.6282,49],[37.2948,49],[36.9837,49],[36.7699,49],[36.3734,49],[35.5135,49],[35.364,49],[34.8246,49],[34.6103,49],[34.4826,49],[34.3961,49],[34.4309,49],[34.4516,49],[34.1461,49],[33.8937,49],[33.7596,49],[33.5954,49],[33.5229,49],[33.482,49],[33.1502,49],[33.002,49],[32.8476,49],[32.8853,49],[32.9305,49],[32.3999,49],[31.8953,49],[31.983,49],[32.2016,49],[32.3406,49],[32.501,49],[32.4637,49],[32.6864,49],[32.8573,49],[32.8624,49],[32.9287,49],[33.1806,49],[33.2244,49],[33.1829,49],[33.2174,49],[33.4053,49],[33.5177,49],[33.656,49],[33.5933,49],[33.477,49],[33.3605,49],[33.4158,49],[33.5667,49],[34.1127,49],[34.3998,49],[34.6918,49],[34.7863,49],[34.7932,49],[34.777,49],[34.7348,49],[34.7155,49],[34.6157,49],[34.5441,49],[34.4064,49],[34.5359,49],[34.6711,49],[34.8035,49],[34.8271,49],[34.8326,49],[34.9522,49],[34.9055,49],[34.8583,49],[34.8695,49],[35.0354,49],[35.2841,49],[35.432,49],[35.6471,49],[35.8021,49],[36.1465,49],[36.302,49],[36.3649,49],[36.7138,49],[36.9752,49],[37.3728,49],[37.4422,49],[37.6354,49],[37.968,49],[38.0708,49],[38.0622,49],[37.9771,49],[37.9537,49],[37.8436,49],[37.7406,49],[37.4296,49],[37.2896,49],[37.1837,49],[37.0404,49],[36.7693,49],[36.6242,49],[36.5787,49],[36.5282,49],[36.5346,49],[36.6529,49],[36.7859,49],[36.8828,49],[37.0502,49],[37.1408,49],[37.5281,49],[38.0094,49],[38.1157,49],[38.2282,49],[38.4121,49],[38.442,49],[38.5409,49],[38.6131,49],[39.0535,49],[39.5674,49],[39.758,49],[39.833,49],[39.8486,49],[40.0578,49],[40.2037,49],[40.4078,49],[40.4449,49],[40.3754,49],[40.2813,49],[40.1427,49],[39.8965,49],[39.798,49],[39.7491,49],[39.7812,49],[39.8165,49],[40.3278,49],[40.5128,49],[40.6916,49],[40.7744,49],[41.0761,49],[41.4758,49],[41.7809,49],[42.0836,49],[42.2105,49],[42.3137,49],[42.4508,49],[42.6021,49],[42.8065,49],[43.006,49],[43.2332,49],[43.5509,49],[43.6033,49],[43.6531,49],[43.5504,49],[43.5419,49],[43.6239,49],[43.737,49],[43.8438,49],[43.9441,49],[44.0167,49],[44.1044,49],[44.1324,49],[44.1453,49],[44.0972,49],[44.2207,49],[44.3164,49],[44.4887,49],[44.4371,49],[44.4293,49],[44.4039,49],[44.2918,49],[44.0744,49],[43.8554,49],[43.7824,49],[43.7957,49],[43.8563,49],[44.0364,49],[44.2254,49],[44.2315,49],[44.2139,49],[44.2265,49],[44.2047,49],[44.1691,49],[43.404,49],[43.358,49],[43.3332,49],[43.4133,49],[43.472,49],[44.048,49],[44.1753,49],[45.0781,49],[45.5194,49],[45.892,49],[46.1584,49],[46.4297,49],[46.6836,49],[46.6904,49],[46.4289,49],[46.1742,49],[45.5287,49],[45.3741,49],[44.9395,49],[44.9021,49],[44.9395,49],[45.1389,49],[45.5622,49],[45.7525,49],[45.8854,49],[45.986,49],[46.084,49],[46.2978,49],[46.4485,49],[46.4924,49],[46.5523,49],[46.6908,49],[47.4965,49],[47.6559,49],[47.7091,49],[47.7681,49],[47.8393,49],[47.9082,49],[47.8826,49],[47.8747,49],[48.2787,49],[48.6538,49],[48.8332,49],[48.8779,49],[48.7627,49],[48.6957,49],[48.7543,49],[48.8406,49],[48.9539,49],[49.1553,49],[49.9312,49],[50.2332,49],[50.4141,49],[50.6994,49],[50.8389,49],[51.0785,49],[51.3361,49],[51.6167,49],[51.9947,49],[52.0557,49],[52.1288,49],[52.2854,49],[52.2274,49],[52.1835,49],[52.2592,49],[52.3223,49],[52.3967,49],[52.475,49],[52.6697,49],[52.7227,49],[52.6477,49],[52.5501,49],[52.4351,49],[52.344,49],[52.6836,49],[53.4129,49],[53.802,49],[54,49],[53.8744,49],[53.7977,49],[53.7982,49],[53.9195,49],[53.9706,49],[53.9293,49],[53.8912,49],[53.8339,49],[53.7589,49],[53.9177,49],[53.9309,49],[53.8295,49],[53.69,49],[53.5667,49],[53.3426,49],[53.2934,49],[53.2605,49],[53.4031,49],[53.5151,49],[53.9137,49],[53.9679,49],[54,49],[54,48.9948],[54,48.9641],[54,48.7729],[54,48.5237],[54,48.4227],[54,48.3238],[54,48.1806],[54,48.0899],[54,47.9753],[54,47.8874],[54,47.6349],[54,47.3833],[54,47.0572],[54,46.9762],[54,46.8898],[54,46.7451],[54,46.5434],[54,46.4629],[54,46.2507],[54,45.9285],[54,45.8184],[54,45.64],[54,45.3935],[54,45.1711],[54,45.08],[54,44.9782],[54,44.8221],[54,44.6668],[54,44.562],[54,44.4891],[54,44.4398],[54,44.3735],[54,43.9715],[54,43.8988],[54,43.835],[54,43.6846],[54,43.5257],[54,43.4266],[54,43.2906],[54,43.0421],[54,42.9475],[54,42.8299],[54,42.8282],[54,42.7639],[54,42.697],[54,42.7228],[54,42.808],[54,42.8053],[54,42.7938],[54,42.8758],[54,42.8716],[54,42.9098],[54,42.8833],[54,43.2387],[54,43.3135],[54,43.2451],[54,43.1189],[54,43.0954],[54,43.0952],[54,43.1708],[54,43.28],[54,43.296],[54,43.302],[54,43.2553],[54,43.2026],[54,42.9964],[54,42.8223],[54,42.7721],[54,42.6974],[54,42.626],[54,42.6452],[54,42.6339],[54,42.6733],[54,42.6564],[54,42.5229],[54,42.3258],[54,42.3025],[54,42.3278],[54,42.3725],[54,42.4156],[54,42.4747],[54,42.5354],[54,42.5673],[54,42.6232],[54,42.6743],[54,42.6855],[54,42.6999],[54,42.7271],[54,42.7554],[54,42.7791],[54,42.8116],[54,42.8358],[54,42.8568],[54,42.8633],[54,42.8518],[54,42.8831],[54,42.9022],[54,42.9563],[54,43.0381],[54,43.0625],[54,43.0976],[54,43.1422],[54,43.2578],[54,43.3376],[54,43.3781],[54,43.4331],[54,43.469],[54,43.4904],[54,43.5056],[54,43.5671],[54,43.6509],[54,43.7047],[54,44.0029],[54,44.0716],[54,44.4692],[54,44.5957],[54,44.6597],[54,44.7532],[54,44.8],[54,44.8443],[54,44.8889],[54,44.91],[54,44.9202],[54,44.9361],[54,44.984],[54,45.0131],[54,45.0836],[54,45.1366],[54,45.2054],[54,45.2426],[54,45.3053],[54,45.3269],[54,45.2737],[54,45.244],[54,45.226],[54,45.2033],[54,45.16],[54,45.1228],[54,45.0937],[54,45.0806],[54,45.0611],[54,45.046],[54,45.0299],[54,45.0746],[54,45.1307],[54,45.2205],[54,45.3214],[54,45.4948],[54,45.5453],[54,45.5531],[54,45.5722],[54,45.6047],[54,45.6512],[54,45.7051],[54,45.7577],[54,45.8104],[54,45.8788],[54,45.8978],[54,45.9203],[54,45.9552],[54,46.0089],[54,46.0696],[54,46.1397],[54,46.1859],[54,46.2243],[54,46.2478],[54,46.3091],[54,46.336],[54,46.3669],[54,46.4306],[54,46.4991],[54,46.6143],[54,46.7132],[54,46.8582],[54,46.882],[54,46.9508],[54,46.9781],[54,47.069],[54,47.1281],[54,47.1942],[54,47.2587],[54,47.3022],[54,47.3526],[54,47.3777],[54,47.4136],[54,47.4295],[54,47.4382],[54,47.4474],[54,47.4852],[54,47.5239],[54,47.6249],[54,47.6845],[54,47.7154],[54,47.8014],[54,47.8743],[54,47.9752],[54,48.0225],[54,48.0829],[54,48.1202],[54,48.1533],[54,48.2104],[54,48.2539],[54,48.3217],[54,48.3553],[54,48.3688],[54,48.3734],[54,48.3599],[54,48.2737],[54,48.2077],[54,48.133],[54,48.0972],[54,48.1015],[54,48.1057],[54,48.0644],[54,47.9791],[54,47.9401],[54,47.9473],[54,47.8901],[54,47.7685],[54,47.715],[54,47.7295],[54,47.718],[54,47.6805],[54,47.682],[54,47.7226],[54,47.7278],[54,47.6977],[54,47.6915],[54,47.7093],[54,47.7598],[54,47.8429],[54,47.9294],[54,48.0192],[54,48.1276],[54,48.2546],[54,48.3415],[54,48.3884],[54,48.4304],[54,48.4834],[54,48.5747],[54,48.6025],[54,48.6801],[54,48.7732],[54,48.8612],[54,48.8664],[54,48.8917],[54,48.9723],[54,49],[53.9568,49],[53.7765,49],[53.6881,49],[53.5347,49],[53.4486,49],[53.3381,49],[53.2473,49],[53.2273,49],[53.0384,49],[52.9026,49],[52.8205,49],[52.7351,49],[52.7281,49],[52.6352,49],[52.6178,49],[52.5712,49],[52.4962,49],[52.423,49],[52.3311,49],[52.2191,49],[52.0071,49],[51.7754,49],[51.6091,49],[51.4734,49],[51.396,49],[51.3445,49],[51.3011,49],[51.2907,49],[51.2699,49],[51.1635,49],[51.0179,49],[50.8824,49],[50.7939,49],[50.7562,49],[50.6439,49],[50.5163,49],[50.3537,49],[50.3093,49],[50.2469,49],[50.1049,49],[49.9323,49],[49.8223,49],[49.6663,49],[49.498,49],[49.4246,49],[49.3795,49],[49.3234,49],[49.0587,49],[48.9138,49],[48.8084,49],[48.7348,49],[48.6552,49],[48.6251,49],[48.666,49],[48.7005,49],[48.7494,49],[48.7848,49],[48.818,49],[48.8433,49],[48.8103,49],[48.759,49],[48.6,49],[48.4343,49],[48.335,49],[48.2248,49],[48.1813,49],[48.0607,49],[47.8496,49],[47.7058,49],[47.5996,49],[47.5036,49],[47.4292,49],[47.3764,49],[47.3265,49],[47.2947,49],[47.2977,49],[47.2952,49],[47.2483,49],[47.1296,49],[46.992,49],[46.8896,49],[46.8231,49],[46.8021,49],[46.8529,49],[46.9534,49],[47.0182,49],[47.0313,49],[47.0143,49],[46.9622,49],[46.8529,48.9696],[46.7026,48.8056],[46.6092,48.5739],[46.6609,48.4123],[46.8531,48.3236],[47.0043,48.2845],[47.0646,48.2325],[47.119,48.127],[47.1115,48.0201],[47.0933,47.9477],[47.1308,47.8768],[47.2021,47.7925],[47.2924,47.7409],[47.3873,47.7687],[47.4819,47.8039],[47.6002,47.79],[47.9347,47.7607],[48.11,47.7454],[48.167,47.7088],[48.2757,47.5899],[48.4131,47.4565],[48.5525,47.321],[48.6007,47.2623],[48.7144,47.1005],[48.8318,46.9549],[48.9594,46.7746],[48.9503,46.7258],[48.8836,46.7054],[48.7764,46.7104],[48.6936,46.7368],[48.6471,46.7587],[48.6053,46.7659],[48.5584,46.7571],[48.5186,46.7343],[48.5023,46.6986],[48.5092,46.65],[48.5412,46.6056],[48.586,46.5771],[48.6102,46.5665],[48.7743,46.508],[48.959,46.4421],[49.1843,46.3488],[49.2322,46.3372],[49.2459,46.2916],[49.1255,46.2817],[49.1106,46.2285],[49.0796,46.1892],[48.81,46.1005],[48.7426,46.1007],[48.6837,46.0862],[48.6873,46.0288],[48.7034,45.9762],[48.7496,45.9206],[48.7296,45.8968],[48.6896,45.8889],[48.6374,45.9058],[48.5891,45.9349],[48.5373,45.9421],[48.487,45.9349],[48.2576,45.7778],[48.1592,45.737],[48.0528,45.721],[47.8302,45.663],[47.764,45.666],[47.7011,45.6862],[47.6498,45.6567],[47.6333,45.584],[47.574,45.6343],[47.5084,45.6742],[47.4794,45.6876],[47.4633,45.6797],[47.5242,45.6017],[47.5295,45.5302],[47.5146,45.4909],[47.4887,45.4551],[47.4545,45.4331],[47.4131,45.421],[47.3911,45.2948],[47.3513,45.2177],[47.2962,45.1495],[47.2215,45.0243],[47.1615,44.9696],[47.1147,44.906],[47.0838,44.817],[47.0393,44.8379],[47.0029,44.8761],[46.9837,44.8256],[46.9574,44.7826],[46.8412,44.7183],[46.7553,44.6565],[46.7161,44.5607],[46.7072,44.5033],[46.7209,44.4517],[46.753,44.4207],[46.9157,44.3872],[47.0236,44.3433],[47.1227,44.2617],[47.2299,44.1924],[47.307,44.1031],[47.3615,43.9934],[47.4292,43.7799],[47.4628,43.555],[47.5626,43.8347],[47.6465,43.8846],[47.6278,43.806],[47.568,43.685],[47.509,43.5097],[47.4898,43.3817],[47.5116,43.2708],[47.5129,43.2188],[47.4632,43.0351],[47.4889,42.9998],[47.529,42.9671],[47.6349,42.9035],[47.7091,42.8109],[47.7277,42.6807],[47.7697,42.6448],[47.8224,42.6135],[48.0802,42.3537],[48.2286,42.181],[48.303,42.0802],[48.3838,41.9534],[48.4264,41.924],[48.4768,41.9051],[48.5729,41.8445]]],[[[47.983,45.4882],[47.9677,45.47],[47.9203,45.5621],[47.9176,45.6182],[47.9472,45.6471],[47.9871,45.5541],[47.983,45.4882]]],[[[35.0017,45.7334],[35.0229,45.701],[35.2602,45.4469],[35.3739,45.3536],[35.4575,45.3163],[35.558,45.3109],[35.751,45.3894],[35.8335,45.4016],[36.0129,45.3717],[36.0771,45.4241],[36.1705,45.4531],[36.2903,45.4567],[36.4271,45.4333],[36.575,45.3936],[36.5143,45.3038],[36.4508,45.2323],[36.4284,45.1533],[36.3934,45.0654],[36.2299,45.026],[36.0548,45.0308],[35.8701,45.0053],[35.8036,45.0396],[35.7595,45.0708],[35.6775,45.102],[35.5695,45.1193],[35.4726,45.0985],[35.3578,44.9784],[35.1548,44.8963],[35.0877,44.8026],[34.8878,44.8236],[34.7169,44.8071],[34.4699,44.7217],[34.2817,44.5384],[34.0744,44.4238],[33.91,44.3876],[33.7557,44.3989],[33.6559,44.4332],[33.4507,44.5537],[33.4627,44.5968],[33.4913,44.6186],[33.5301,44.6805],[33.6122,44.9078],[33.6012,44.9815],[33.5552,45.0977],[33.3925,45.1878],[33.2615,45.1708],[33.1869,45.1948],[32.9187,45.3481],[32.7727,45.359],[32.6113,45.3281],[32.5519,45.3504],[32.508,45.4038],[32.828,45.593],[33.1423,45.7492],[33.2801,45.7652],[33.4662,45.8379],[33.6648,45.9471],[33.6367,46.0329],[33.5941,46.0962],[33.6543,46.1462],[33.66,46.2196],[33.8067,46.2083],[34.0267,46.1067],[34.1283,46.0898],[34.2242,46.1011],[34.354,46.0616],[34.4499,45.9657],[34.5232,45.977],[34.6869,45.977],[34.7941,45.8923],[34.7997,45.7908],[34.9464,45.7287],[35.0017,45.7334]]]]}},{"type":"Feature","properties":{"name":"Syria","adm0_a3":"SYR"},"geometry":{"type":"Polygon","coordinates":[[[42.359,37.1086],[42.3591,37.095],[42.3501,37.0606],[42.2373,36.9611],[42.084,36.826],[41.974,36.7408],[41.7886,36.5972],[41.6502,36.5664],[41.4168,36.5146],[41.3542,36.4644],[41.296,36.3833],[41.2618,36.2725],[41.2518,36.203],[41.2456,36.0734],[41.3002,35.939],[41.3526,35.81],[41.3594,35.7246],[41.3541,35.6404],[41.3033,35.5506],[41.2483,35.4275],[41.2164,35.2882],[41.1996,35.0274],[41.1992,34.8053],[41.1947,34.769],[41.099,34.6123],[40.987,34.4291],[40.9351,34.3866],[40.6895,34.332],[40.4215,34.1978],[40.122,34.0477],[39.85,33.9114],[39.5645,33.7684],[39.2684,33.62],[39.0567,33.514],[38.7735,33.3722],[38.5156,33.2366],[38.2543,33.0992],[38.0558,32.9949],[37.7541,32.8298],[37.5774,32.7331],[37.3176,32.5908],[37.089,32.4655],[36.8184,32.3173],[36.4792,32.3613],[36.3721,32.3869],[36.2843,32.4575],[36.2197,32.4951],[36.0595,32.5338],[35.9564,32.6667],[35.8947,32.7138],[35.7873,32.7349],[35.8015,32.7823],[35.8568,32.8624],[35.9135,32.9496],[35.882,32.9981],[35.8718,33.0394],[35.8681,33.0886],[35.9066,33.1357],[35.8885,33.1925],[35.8588,33.2496],[35.837,33.2782],[35.8371,33.3305],[35.8516,33.3705],[35.8691,33.4317],[35.9147,33.4654],[35.9266,33.5003],[35.9676,33.5346],[36.0223,33.5625],[36.0345,33.5851],[36.0267,33.5979],[35.9717,33.6231],[35.9424,33.6676],[35.9685,33.7324],[35.9861,33.7526],[36.0188,33.7839],[36.0922,33.8316],[36.1498,33.8395],[36.1994,33.8396],[36.2834,33.8356],[36.3485,33.8271],[36.365,33.8394],[36.3628,33.8551],[36.2822,33.8942],[36.2778,33.9253],[36.2979,33.9586],[36.3549,34.0113],[36.4229,34.0499],[36.4575,34.0568],[36.5352,34.1343],[36.585,34.2212],[36.5044,34.4324],[36.4556,34.4662],[36.3765,34.4952],[36.3299,34.4996],[36.3263,34.5133],[36.3887,34.5669],[36.433,34.6135],[36.3839,34.6579],[36.2963,34.6787],[36.2636,34.6329],[36.1511,34.6286],[35.9763,34.6292],[35.8993,34.8521],[35.8879,34.9486],[35.8899,35.0603],[35.9431,35.2238],[35.9181,35.2995],[35.916,35.3505],[35.9024,35.4207],[35.7645,35.5716],[35.8396,35.8492],[35.8927,35.9166],[35.9676,35.9101],[36.1273,35.8314],[36.1536,35.8339],[36.202,35.9375],[36.2488,35.9727],[36.3476,36.0035],[36.3754,36.1712],[36.4215,36.2035],[36.4771,36.2207],[36.5624,36.2239],[36.6367,36.234],[36.6414,36.2635],[36.5375,36.4574],[36.5467,36.5063],[36.5969,36.7014],[36.6284,36.7777],[36.6586,36.8025],[36.7766,36.7927],[36.9418,36.7584],[36.9854,36.7024],[37.0662,36.6526],[37.1874,36.6559],[37.3271,36.6466],[37.4363,36.6433],[37.5235,36.6783],[37.7203,36.7437],[37.818,36.7656],[37.9066,36.7946],[38.1917,36.9016],[38.3059,36.8934],[38.384,36.8792],[38.4438,36.8623],[38.578,36.7891],[38.6889,36.7151],[38.7666,36.6931],[38.9064,36.6947],[39.1084,36.6806],[39.3566,36.6816],[39.5015,36.7022],[39.6865,36.7386],[40.0164,36.8261],[40.4504,37.0089],[40.7057,37.0977],[40.8156,37.1082],[40.9589,37.1092],[41.1021,37.0859],[41.2646,37.0693],[41.3396,37.0708],[41.5155,37.0892],[41.7436,37.1261],[41.8868,37.1564],[42.0599,37.2061],[42.1679,37.2886],[42.2027,37.2973],[42.2476,37.2822],[42.2686,37.2766],[42.3129,37.2296],[42.359,37.1086]]]}},{"type":"Feature","properties":{"name":"Ukraine","adm0_a3":"UKR"},"geometry":{"type":"MultiPolygon","coordinates":[[[[23.6053,49],[23.6138,49],[23.6086,49],[23.6467,49],[23.7068,49],[23.7917,49],[23.8643,49],[23.9512,49],[23.9783,49],[24.1269,49],[24.2801,49],[24.3237,49],[24.3619,49],[24.4952,49],[24.6113,49],[24.6852,49],[24.8664,49],[24.9738,49],[25.0667,49],[25.2672,49],[25.5803,49],[25.7857,49],[25.9253,49],[26.2671,49],[26.3943,49],[26.4534,49],[26.5669,49],[26.7734,49],[26.9528,49],[27.0741,49],[27.142,49],[27.2701,49],[27.2963,49],[27.3477,49],[27.4523,49],[27.6014,49],[27.6897,49],[27.6768,49],[27.7,49],[27.7413,49],[27.7889,49],[27.8288,49],[27.8586,49],[28.0107,49],[28.0803,49],[28.1444,49],[28.1838,49],[28.2916,49],[28.4246,49],[28.532,49],[28.599,49],[28.6478,49],[28.6902,49],[28.7312,49],[28.7933,49],[28.8495,49],[28.9275,49],[28.9777,49],[29.0131,49],[29.0607,49],[29.1021,49],[29.1356,49],[29.1742,49],[29.2305,49],[29.2988,49],[29.3465,49],[29.4696,49],[29.5531,49],[29.7061,49],[29.9088,49],[30.0638,49],[30.1607,49],[30.2195,49],[30.309,49],[30.3334,49],[30.4495,49],[30.5445,49],[30.577,49],[30.6325,49],[30.6117,49],[30.6023,49],[30.5607,49],[30.533,49],[30.5839,49],[30.6395,49],[30.6673,49],[30.7553,49],[30.8457,49],[30.9807,49],[31.0793,49],[31.1685,49],[31.218,49],[31.346,49],[31.5737,49],[31.7634,49],[31.7824,49],[31.8756,49],[31.9738,49],[32.0416,49],[32.1223,49],[32.2168,49],[32.2828,49],[32.363,49],[32.3913,49],[32.4354,49],[32.5079,49],[32.6454,49],[32.8064,49],[32.8997,49],[33.1484,49],[33.2871,49],[33.4519,49],[33.6134,49],[33.7353,49],[33.8188,49],[33.9221,49],[34.0153,49],[34.1131,49],[34.3979,49],[34.4027,49],[34.3793,49],[34.2392,49],[34.1211,49],[34.1154,49],[34.1468,49],[34.2009,49],[34.2093,49],[34.2065,49],[34.2299,49],[34.275,49],[34.2807,49],[34.2284,49],[34.2139,49],[34.2342,49],[34.491,49],[34.6168,49],[34.7123,49],[34.7604,49],[34.8686,49],[34.9902,49],[35.0641,49],[35.0926,49],[35.1153,49],[35.1581,49],[35.198,49],[35.2691,49],[35.3119,49],[35.3348,49],[35.3091,49],[35.3147,49],[35.3461,49],[35.3832,49],[35.4174,49],[35.4401,49],[35.4116,49],[35.3917,49],[35.4116,49],[35.4885,49],[35.5455,49],[35.5911,49],[35.6737,49],[35.7962,49],[35.8902,49],[36.0078,49],[36.1164,49],[36.1895,49],[36.2434,49],[36.3061,49],[36.3688,49],[36.4998,49],[36.5597,49],[36.6194,49],[36.6964,49],[36.7591,49],[36.9885,49],[37.1313,49],[37.1711,49],[37.2549,49],[37.3432,49],[37.4229,49],[37.5014,49],[37.5823,49],[37.6051,49],[37.7042,49],[37.9503,49],[38.0469,49],[38.1125,49],[38.1468,49],[38.1627,49],[38.1775,49],[38.2087,49],[38.2586,49],[38.4512,49],[38.552,49],[38.6478,49],[38.7767,49],[38.9184,49],[39.0277,49],[39.1149,49],[39.1748,49],[39.2118,49],[39.246,49],[39.3029,49],[39.3685,49],[39.4628,49],[39.6266,49],[39.7806,49],[39.8769,49],[39.9585,49],[40.0307,49],[40.0807,49],[40.0949,49],[40.0578,49],[40.1262,49],[40.1283,49],[40.1088,49],[40.07,49],[39.9764,49],[39.8897,49],[39.7595,49],[39.6865,49],[39.7057,48.9596],[39.7533,48.9145],[39.8638,48.878],[39.9892,48.8514],[40.0036,48.8221],[39.9845,48.8074],[39.9041,48.7938],[39.7929,48.8077],[39.7559,48.7821],[39.7046,48.7394],[39.6704,48.6625],[39.6447,48.5912],[39.7654,48.5719],[39.8356,48.5428],[39.8575,48.4842],[39.8826,48.4191],[39.8898,48.3604],[39.8499,48.3319],[39.8475,48.3028],[39.8663,48.2884],[39.9182,48.2819],[39.9579,48.2689],[39.961,48.2379],[39.8851,48.1684],[39.814,48.0353],[39.7758,47.9645],[39.7787,47.8875],[39.7359,47.8448],[39.6585,47.8412],[39.391,47.8337],[39.1585,47.8374],[39.0578,47.8485],[38.9003,47.8551],[38.8223,47.837],[38.7189,47.7141],[38.6406,47.6659],[38.5109,47.6224],[38.3688,47.61],[38.2874,47.5592],[38.2588,47.4795],[38.2565,47.4089],[38.2433,47.3737],[38.2124,47.3428],[38.2014,47.3208],[38.208,47.2965],[38.241,47.2877],[38.2808,47.2767],[38.2808,47.259],[38.2653,47.237],[38.2212,47.2127],[38.2014,47.1752],[38.2059,47.1356],[38.2144,47.0915],[38.1783,47.0802],[37.8287,47.0958],[37.7611,47.0908],[37.5434,47.0746],[37.3398,46.9169],[37.2186,46.9173],[37.0476,46.8762],[36.932,46.8251],[36.7948,46.7144],[36.6887,46.7641],[36.5588,46.7627],[36.432,46.7326],[36.2795,46.6586],[36.1946,46.6455],[36.0249,46.6668],[35.8271,46.6243],[35.4002,46.3814],[35.2566,46.2039],[35.2044,46.1692],[35.1323,46.1259],[35.0553,46.104],[35.0146,46.106],[35.2178,46.2322],[35.2802,46.2795],[35.2909,46.3144],[35.292,46.3707],[35.2304,46.4406],[35.0641,46.2672],[34.9695,46.2421],[34.8496,46.1899],[34.8438,46.0736],[34.8573,45.9874],[34.9066,45.8788],[35.0017,45.7334],[34.9464,45.7287],[34.7997,45.7908],[34.7941,45.8923],[34.6869,45.977],[34.5232,45.977],[34.4499,45.9657],[34.354,46.0616],[34.2242,46.1011],[34.1283,46.0898],[34.0267,46.1067],[33.8067,46.2083],[33.66,46.2196],[33.6543,46.1462],[33.5941,46.0962],[33.4988,46.0789],[33.4299,46.0576],[33.2635,46.1257],[33.2022,46.1757],[32.9418,46.1238],[32.7969,46.1315],[32.4768,46.0837],[32.3299,46.1304],[32.0357,46.261],[31.9252,46.2873],[31.8313,46.2817],[31.78,46.3247],[31.8429,46.3461],[31.9159,46.3487],[31.9917,46.3644],[32.0131,46.3872],[32.0085,46.43],[31.8558,46.4625],[31.7137,46.4718],[31.6236,46.5103],[31.5549,46.5543],[31.716,46.555],[31.8779,46.5217],[32.1314,46.5094],[32.3613,46.475],[32.4189,46.5178],[32.5525,46.592],[32.578,46.6156],[32.3541,46.5648],[32.1272,46.5972],[32.0443,46.6425],[31.9743,46.7088],[31.9449,46.7844],[31.9641,46.8548],[31.9396,46.982],[31.8647,47.0951],[31.8382,47.1572],[31.7592,47.2128],[31.8369,47.087],[31.8659,47.0033],[31.9127,46.9261],[31.9017,46.7216],[31.8729,46.6498],[31.7796,46.6316],[31.657,46.6424],[31.5321,46.6647],[31.5634,46.7773],[31.4969,46.7384],[31.4029,46.6288],[31.3203,46.6125],[31.1368,46.6245],[30.7963,46.552],[30.7729,46.473],[30.7217,46.3662],[30.6723,46.304],[30.6567,46.2665],[30.5115,46.1054],[30.493,46.0901],[30.219,45.8667],[30.1842,45.85],[30.0066,45.7979],[29.9017,45.7524],[29.8212,45.7321],[29.6851,45.7547],[29.6284,45.7225],[29.6017,45.6825],[29.6012,45.6],[29.6703,45.5407],[29.727,45.3433],[29.7059,45.2599],[29.652,45.3139],[29.5677,45.3708],[29.4037,45.4197],[29.2235,45.4029],[29.0274,45.3206],[28.8943,45.2899],[28.8243,45.3111],[28.7817,45.3099],[28.7666,45.2862],[28.7698,45.2669],[28.7914,45.2519],[28.7883,45.241],[28.7607,45.2341],[28.4513,45.2922],[28.3177,45.3471],[28.2125,45.4504],[28.2648,45.4839],[28.3104,45.4986],[28.4714,45.5072],[28.499,45.5177],[28.5018,45.5416],[28.5138,45.5724],[28.5095,45.6178],[28.4916,45.6658],[28.5623,45.7358],[28.6676,45.7938],[28.7293,45.852],[28.7388,45.9372],[28.8495,45.9787],[28.9478,46.05],[28.9719,46.1276],[29.0063,46.1765],[28.9438,46.2884],[28.9306,46.3623],[28.9274,46.4241],[28.9584,46.4585],[29.0499,46.497],[29.1463,46.5269],[29.1862,46.524],[29.2008,46.505],[29.2046,46.3793],[29.2238,46.377],[29.2546,46.3926],[29.3049,46.4666],[29.3396,46.4451],[29.3929,46.4369],[29.4328,46.456],[29.4588,46.4538],[29.491,46.4347],[29.5551,46.4078],[29.6149,46.3988],[29.6646,46.4167],[29.7068,46.4487],[29.752,46.4378],[29.8379,46.3505],[29.878,46.3602],[30.0757,46.3778],[30.1075,46.4016],[30.1311,46.4231],[29.9243,46.5389],[29.9348,46.625],[29.9425,46.7238],[29.9181,46.7824],[29.8778,46.8289],[29.7197,46.8829],[29.5978,46.9388],[29.572,46.964],[29.5687,46.9967],[29.5635,47.0475],[29.515,47.0911],[29.5109,47.128],[29.5418,47.1855],[29.5493,47.2468],[29.5392,47.271],[29.5106,47.2907],[29.4557,47.2926],[29.3834,47.328],[29.3338,47.3757],[29.2006,47.4445],[29.1598,47.4557],[29.1349,47.4897],[29.1229,47.5304],[29.1509,47.5809],[29.186,47.6586],[29.2107,47.7315],[29.2111,47.775],[29.1948,47.8824],[29.1254,47.9646],[29.093,47.9754],[29.0369,47.9523],[28.9733,47.933],[28.9231,47.9511],[28.8658,47.9957],[28.7738,48.1196],[28.6017,48.1444],[28.5305,48.1503],[28.4631,48.0905],[28.442,48.1087],[28.423,48.1469],[28.3875,48.1621],[28.3405,48.1444],[28.327,48.1614],[28.3472,48.213],[28.291,48.2386],[28.1588,48.238],[28.0885,48.257],[28.0801,48.2958],[28.0385,48.3213],[27.9634,48.3335],[27.8906,48.3652],[27.82,48.4163],[27.7145,48.4495],[27.5737,48.4649],[27.5622,48.4704],[27.5492,48.4777],[27.4584,48.4431],[27.4038,48.4156],[27.3369,48.4327],[27.2285,48.3714],[27.0085,48.3683],[26.9006,48.3719],[26.8471,48.3872],[26.6404,48.2941],[26.6189,48.2599],[26.5725,48.2485],[26.4424,48.23],[26.3057,48.2038],[26.277,48.1132],[26.2362,48.0644],[26.1627,47.9925],[25.9087,47.9676],[25.6893,47.9325],[25.4643,47.9108],[25.1696,47.8231],[25.0738,47.7457],[24.9791,47.7241],[24.8934,47.7178],[24.8379,47.7608],[24.651,47.8765],[24.5789,47.9311],[24.4841,47.9471],[24.381,47.938],[24.2819,47.9112],[24.1777,47.9061],[24.0598,47.9448],[24.0474,47.941],[24.0019,47.9358],[23.709,47.9826],[23.682,47.9904],[23.669,47.9923],[23.6287,47.9958],[23.4082,47.99],[23.2026,48.0845],[23.1395,48.0874],[23.0908,48.0491],[23.0548,48.0065],[22.9129,47.9643],[22.8767,47.9473],[22.8561,47.9603],[22.8465,47.9971],[22.8572,48.0295],[22.8362,48.0603],[22.7822,48.0952],[22.7691,48.1096],[22.7016,48.107],[22.6831,48.1036],[22.6764,48.1044],[22.5824,48.134],[22.5201,48.2054],[22.4238,48.2433],[22.3502,48.2561],[22.3167,48.2866],[22.2951,48.3273],[22.2722,48.358],[22.2694,48.3609],[22.2537,48.4074],[22.2312,48.4122],[22.2271,48.4134],[22.1318,48.4053],[22.1429,48.5685],[22.2952,48.6858],[22.3326,48.7451],[22.3895,48.8735],[22.432,48.9335],[22.4832,48.9833],[22.5241,49],[22.5387,49],[22.58,49],[22.7013,49],[22.8098,49],[22.8397,49],[22.8521,49],[22.8471,49],[22.7602,49],[22.7057,49],[22.7023,49],[22.722,49],[22.7324,49],[22.7199,49],[22.6606,49],[22.6494,49],[22.7062,49],[22.8907,49],[22.9522,49],[23.0363,49],[23.2645,49],[23.4086,49],[23.5062,49],[23.649,49],[23.7117,49],[23.9727,49],[24.005,49],[24.0526,49],[24.0899,49],[24.0947,49],[24.0463,49],[24.0073,49],[23.9784,49],[23.9971,49],[24.026,49],[24.0616,49],[24.1058,49],[24.0958,49],[23.9857,49],[23.9381,49],[23.8635,49],[23.7122,49],[23.6645,49],[23.6576,49],[23.6797,49],[23.6589,49],[23.6053,49]]],[[[32.0122,46.2039],[32.1501,46.1547],[32.0094,46.1678],[31.7002,46.2141],[31.5639,46.2578],[31.5287,46.3066],[31.5088,46.3731],[31.5849,46.3032],[31.6385,46.2726],[32.0122,46.2039]]]]}}]}